{"version": 0.6, "generator": "Overpass API 0.7.61.5 4133829e", "osm3s": {"timestamp_osm_base": "2023-09-28T20:00:57Z", "copyright": "The data included in this document is from www.openstreetmap.org. The data is made available under ODbL."}, "elements": [{"type": "node", "id": 361011456, "lat": 39.9522349, "lon": -75.1616645, "tags": {"bench": "yes", "bus": "yes", "covered": "yes", "highway": "bus_stop", "name": "13th St & Market St", "network": "SEPTA", "network:wikidata": "Q2037863", "operator": "SEPTA", "public_transport": "platform", "shelter": "yes"}}, {"type": "node", "id": 750281693, "lat": 40.0179671, "lon": -75.0773175, "tags": {"bus": "yes", "highway": "bus_stop", "public_transport": "platform"}}, {"type": "node", "id": 768271130, "lat": 40.0148672, "lon": -75.2072639, "tags": {"bus": "yes", "highway": "bus_stop", "name": "Wissahickon Transportation Center", "network": "SEPTA", "network:wikidata": "Q2037863", "operator": "SEPTA", "public_transport": "platform", "shelter": "yes"}}, {"type": "node", "id": 1015342921, "lat": 39.9664007, "lon": -75.1818691, "tags": {"bus": "yes", "highway": "bus_stop", "public_transport": "platform"}}, {"type": "node", "id": 1015342926, "lat": 39.9667027, "lon": -75.1802427, "tags": {"bus": "yes", "highway": "bus_stop", "public_transport": "platform"}}, {"type": "node", "id": 1015342938, "lat": 39.9665054, "lon": -75.18208, "tags": {"bus": "yes", "highway": "bus_stop", "public_transport": "platform"}}, {"type": "node", "id": 1015348819, "lat": 39.9513224, "lon": -75.1486509, "tags": {"bus": "yes", "highway": "bus_stop", "name": "5th and Market", "public_transport": "platform", "shelter": "no"}}, {"type": "node", "id": 1036223940, "lat": 39.951258, "lon": -75.163682, "tags": {"bench": "yes", "bus": "yes", "highway": "bus_stop", "name": "Broad St & S Penn Sq", "network": "SEPTA", "network:wikidata": "Q2037863", "network:wikipedia": "en:SEPTA", "operator": "SEPTA", "public_transport": "platform", "ref": "20414", "shelter": "yes", "tactile_paving": "no"}}, {"type": "node", "id": 1036227129, "lat": 39.9536672, "lon": -75.1647226, "tags": {"bus": "yes", "highway": "bus_stop", "network": "SEPTA", "network:wikidata": "Q2037863", "operator": "SEPTA", "public_transport": "platform", "wheelchair": "yes"}}, {"type": "node", "id": 1166086013, "lat": 39.9551475, "lon": -75.1808046, "tags": {"bus": "yes", "highway": "bus_stop", "public_transport": "platform"}}, {"type": "node", "id": 1586414619, "lat": 39.964711, "lon": -75.1822572, "tags": {"bus": "yes", "highway": "bus_stop", "name": "Anne d'Harnoncourt Drive & Spring Garden Street", "public_transport": "platform", "route_ref": "38"}}, {"type": "node", "id": 1693851936, "lat": 39.9848671, "lon": -75.1566353, "tags": {"bench": "no", "bus": "yes", "highway": "bus_stop", "local_ref": "bus stop \"C\"", "name": "Diamond and Broad", "public_transport": "platform", "ref": "17158", "shelter": "no", "tactile_paving": "no", "wheelchair": "yes"}}, {"type": "node", "id": 1697156756, "lat": 40.0818034, "lon": -75.1718194, "tags": {"bus": "yes", "highway": "bus_stop", "public_transport": "platform"}}, {"type": "node", "id": 1697954822, "lat": 39.9355696, "lon": -75.1971061, "tags": {"bus": "yes", "highway": "bus_stop", "local_ref": "32 Dickinson", "name": "route 29", "public_transport": "platform"}}, {"type": "node", "id": 1697954834, "lat": 39.9364934, "lon": -75.1957306, "tags": {"bus": "yes", "highway": "bus_stop", "local_ref": "31 Reed", "name": "64", "public_transport": "platform"}}, {"type": "node", "id": 1896674573, "lat": 39.9498937, "lon": -75.1440398, "tags": {"bus": "yes", "highway": "bus_stop", "network": "SEPTA", "network:wikidata": "Q2037863", "operator": "SEPTA", "public_transport": "platform"}}, {"type": "node", "id": 2002134309, "lat": 40.0438831, "lon": -75.0190184, "tags": {"bus": "yes", "designation": "66", "highway": "bus_stop", "name": "66", "public_transport": "platform", "shelter": "yes"}}, {"type": "node", "id": 2002961376, "lat": 39.9193096, "lon": -75.150429, "tags": {"bus": "yes", "highway": "bus_stop", "local_ref": "Route 57 Northbound", "name": "2nd and wolf", "public_transport": "platform"}}, {"type": "node", "id": 2002963992, "lat": 39.98299, "lon": -75.1567809, "tags": {"bench": "no", "bus": "yes", "highway": "bus_stop", "local_ref": "Bus Stop", "public_transport": "platform", "ref": "0238", "shelter": "yes", "tactile_paving": "no", "wheelchair": "yes"}}, {"type": "node", "id": 2002964717, "lat": 39.9216979, "lon": -75.1498845, "tags": {"bus": "yes", "highway": "bus_stop", "local_ref": "Route 57 Northbound", "name": "2nd and Snyder", "public_transport": "platform"}}, {"type": "node", "id": 2002968110, "lat": 39.9205377, "lon": -75.1501742, "tags": {"bus": "yes", "highway": "bus_stop", "local_ref": "Route 57 Nothbound", "name": "2nd and Jackson", "public_transport": "platform"}}, {"type": "node", "id": 2003087709, "lat": 40.0068221, "lon": -75.1567602, "tags": {"bus": "yes", "highway": "bus_stop", "public_transport": "platform"}}, {"type": "node", "id": 2003087712, "lat": 40.0084328, "lon": -75.1564491, "tags": {"bus": "yes", "highway": "bus_stop", "public_transport": "platform"}}, {"type": "node", "id": 2003087828, "lat": 40.0099449, "lon": -75.1561701, "tags": {"bus": "yes", "highway": "bus_stop", "public_transport": "platform"}}, {"type": "node", "id": 2003088512, "lat": 40.0099942, "lon": -75.1576936, "tags": {"bus": "yes", "highway": "bus_stop", "public_transport": "platform"}}, {"type": "node", "id": 2003088605, "lat": 40.0101503, "lon": -75.1594424, "tags": {"bus": "yes", "highway": "bus_stop", "public_transport": "platform"}}, {"type": "node", "id": 2012635254, "lat": 40.0049031, "lon": -75.1535857, "tags": {"bus": "yes", "highway": "bus_stop", "public_transport": "platform"}}, {"type": "node", "id": 2012637849, "lat": 40.0601068, "lon": -75.0183496, "tags": {"bus": "yes", "highway": "bus_stop", "local_ref": "20 bus", "name": "20 bus", "public_transport": "platform"}}, {"type": "node", "id": 2012712683, "lat": 40.0366569, "lon": -75.1326457, "tags": {"bus": "yes", "highway": "bus_stop", "local_ref": "18 E, 26 E", "name": "6th St & Olney Avenue", "public_transport": "platform"}}, {"type": "node", "id": 2012712684, "lat": 40.0365829, "lon": -75.1306073, "tags": {"bus": "yes", "highway": "bus_stop", "local_ref": "47 S", "name": "5th St & Olney Avenue", "public_transport": "platform"}}, {"type": "node", "id": 2012712685, "lat": 40.0369731, "lon": -75.1339761, "tags": {"bus": "yes", "highway": "bus_stop", "local_ref": "18 W / 26 W", "name": "Olney Avenue & 7th St", "public_transport": "platform"}}, {"type": "node", "id": 2012712686, "lat": 40.0363611, "lon": -75.1304195, "tags": {"bus": "yes", "highway": "bus_stop", "local_ref": "47 N", "name": "5th St & Olney Avenue", "public_transport": "platform"}}, {"type": "node", "id": 2012712688, "lat": 40.0381149, "lon": -75.1302908, "tags": {"bus": "yes", "highway": "bus_stop", "local_ref": "47 S", "public_transport": "platform"}}, {"type": "node", "id": 2012712689, "lat": 40.0367472, "lon": -75.1322971, "tags": {"bus": "yes", "highway": "bus_stop", "local_ref": "18 W, 26 W", "name": "6th St & Olney Avenue", "public_transport": "platform"}}, {"type": "node", "id": 2012712690, "lat": 40.0368828, "lon": -75.1343141, "tags": {"bus": "yes", "highway": "bus_stop", "local_ref": "18 E / 26 E", "name": "Olney Avenue & 7th St", "public_transport": "platform"}}, {"type": "node", "id": 2012712691, "lat": 40.0378602, "lon": -75.1300386, "tags": {"bus": "yes", "highway": "bus_stop", "local_ref": "47 N", "name": "5th St & Chew Avenue", "public_transport": "platform"}}, {"type": "node", "id": 2012712692, "lat": 40.0364433, "lon": -75.130736, "tags": {"bus": "yes", "highway": "bus_stop", "local_ref": "18 E / 26 E", "name": "Olney Avenue & 5th St", "public_transport": "platform"}}, {"type": "node", "id": 2012712695, "lat": 40.0365336, "lon": -75.130339, "tags": {"bus": "yes", "highway": "bus_stop", "local_ref": "18 W / 26 W", "name": "Olney Avenue & 5th St", "public_transport": "platform"}}, {"type": "node", "id": 2014327564, "lat": 39.9802728, "lon": -75.1463725, "tags": {"bus": "yes", "highway": "bus_stop", "name": "7th St & Berks St", "public_transport": "platform"}}, {"type": "node", "id": 2014328442, "lat": 39.9803843, "lon": -75.1479237, "tags": {"bus": "yes", "highway": "bus_stop", "name": "N 8th St & Berks St", "public_transport": "platform"}}, {"type": "node", "id": 2229875311, "lat": 39.9932243, "lon": -75.093086, "tags": {"bus": "yes", "highway": "bus_stop", "public_transport": "platform", "source": "Bing"}}, {"type": "node", "id": 2699337080, "lat": 39.9291416, "lon": -75.1768869, "tags": {"highway": "bus_stop", "name": "21331", "operator": "SEPTA", "shelter": "no", "wheelchair": "yes"}}, {"type": "node", "id": 2899463245, "lat": 40.0776962, "lon": -75.2083721, "tags": {"bus": "yes", "highway": "bus_stop", "name": "Chestnut Hill Loop", "network": "SEPTA", "network:wikidata": "Q2037863", "operator": "SEPTA", "public_transport": "platform", "shelter": "yes"}}, {"type": "node", "id": 2899473435, "lat": 40.0779888, "lon": -75.2108012, "tags": {"bus": "yes", "highway": "bus_stop", "name": "Germantown Av & Chestnut Hill Av", "network": "SEPTA", "network:wikidata": "Q2037863", "operator": "SEPTA", "public_transport": "platform", "shelter": "no"}}, {"type": "node", "id": 2899473436, "lat": 40.0787694, "lon": -75.2124132, "tags": {"bus": "yes", "highway": "bus_stop", "name": "Germantown Av & Laughlin Ln", "network": "SEPTA", "network:wikidata": "Q2037863", "operator": "SEPTA", "public_transport": "platform", "shelter": "no"}}, {"type": "node", "id": 2899478951, "lat": 40.0793291, "lon": -75.2138573, "tags": {"bus": "yes", "highway": "bus_stop", "name": "Germantown Av & Norman Ln", "network": "SEPTA", "network:wikidata": "Q2037863", "operator": "SEPTA", "public_transport": "platform", "shelter": "no"}}, {"type": "node", "id": 2899478952, "lat": 40.0796182, "lon": -75.2146022, "tags": {"bus": "yes", "highway": "bus_stop", "name": "Germantown Av & Waterman Av", "network": "SEPTA", "network:wikidata": "Q2037863", "operator": "SEPTA", "public_transport": "platform", "shelter": "no"}}, {"type": "node", "id": 2899535043, "lat": 40.0805604, "lon": -75.2172458, "tags": {"bus": "yes", "highway": "bus_stop", "name": "Germantown Av & Sunset Av", "network": "SEPTA", "network:wikidata": "Q2037863", "operator": "SEPTA", "public_transport": "platform"}}, {"type": "node", "id": 2899535044, "lat": 40.0820871, "lon": -75.2199785, "tags": {"bus": "yes", "highway": "bus_stop", "name": "Germantown Av & Bells Mill Rd", "network": "SEPTA", "network:wikidata": "Q2037863", "operator": "SEPTA", "public_transport": "platform", "shelter": "no"}}, {"type": "node", "id": 2899535045, "lat": 40.0835561, "lon": -75.2224551, "tags": {"bus": "yes", "highway": "bus_stop", "name": "Germantown Av & Hillcrest Av", "network": "SEPTA", "network:wikidata": "Q2037863", "operator": "SEPTA", "public_transport": "platform", "shelter": "no"}}, {"type": "node", "id": 2899535046, "lat": 40.0850809, "lon": -75.2290805, "tags": {"bus": "yes", "highway": "bus_stop", "name": "Germantown Pk & Rodgers Dr", "network": "SEPTA", "network:wikidata": "Q2037863", "operator": "SEPTA", "public_transport": "platform", "shelter": "yes"}}, {"type": "node", "id": 3415309146, "lat": 39.9306335, "lon": -75.1684939, "tags": {"bus": "yes", "highway": "bus_stop", "public_transport": "platform"}}, {"type": "node", "id": 3415309163, "lat": 39.9483879, "lon": -75.1646275, "tags": {"bench": "no", "bus": "yes", "highway": "bus_stop", "name": "Broad St & Locust St", "network": "SEPTA", "network:wikidata": "Q2037863", "operator": "SEPTA", "public_transport": "platform", "ref": "15187", "shelter": "yes", "tactile_paving": "no"}}, {"type": "node", "id": 3415309166, "lat": 39.9495244, "lon": -75.164374, "tags": {"bench": "yes", "bin": "no", "bus": "yes", "highway": "bus_stop", "lit": "yes", "name": "Broad St & Walnut St", "network": "SEPTA", "network:wikidata": "Q2037863", "operator": "SEPTA", "public_transport": "platform", "ref": "15186", "shelter": "yes", "tactile_paving": "no"}}, {"type": "node", "id": 3415309230, "lat": 39.9519603, "lon": -75.1594763, "tags": {"bus": "yes", "covered": "yes", "highway": "bus_stop", "name": "12th St & Market St", "network": "SEPTA", "network:wikidata": "Q2037863", "operator": "SEPTA", "public_transport": "platform", "shelter": "yes"}}, {"type": "node", "id": 3417263291, "lat": 39.9448509, "lon": -75.1417528, "tags": {"bus": "yes", "highway": "bus_stop", "public_transport": "platform"}}, {"type": "node", "id": 3426249732, "lat": 39.9537547, "lon": -75.187672, "tags": {"bus": "yes", "highway": "bus_stop", "public_transport": "platform"}}, {"type": "node", "id": 3428124095, "lat": 39.9505155, "lon": -75.1472905, "tags": {"bus": "yes", "departures_board": "no", "highway": "bus_stop", "name": "57 South to Whitman Plaza", "network": "SEPTA", "network:wikidata": "Q2037863", "operator": "Septa", "public_transport": "platform", "ref": "850", "shelter": "yes"}}, {"type": "node", "id": 3428124096, "lat": 39.9502841, "lon": -75.1474327, "tags": {"bench": "yes", "bus": "yes", "highway": "bus_stop", "public_transport": "platform", "shelter": "no"}}, {"type": "node", "id": 3429163960, "lat": 39.9506311, "lon": -75.1487059, "tags": {"bus": "yes", "highway": "bus_stop", "public_transport": "platform", "shelter": "no"}}, {"type": "node", "id": 3429164418, "lat": 39.950911, "lon": -75.152393, "tags": {"bus": "yes", "highway": "bus_stop", "public_transport": "platform"}}, {"type": "node", "id": 3429164419, "lat": 39.9510755, "lon": -75.1524225, "tags": {"bus": "yes", "highway": "bus_stop", "public_transport": "platform"}}, {"type": "node", "id": 3429439362, "lat": 39.9537848, "lon": -75.1575714, "tags": {"bus": "yes", "highway": "bus_stop", "public_transport": "platform", "shelter": "yes"}}, {"type": "node", "id": 3429660043, "lat": 39.9535947, "lon": -75.1561335, "tags": {"bench": "no", "bin": "no", "bus": "yes", "highway": "bus_stop", "name": "Arch St & 10th St", "public_transport": "platform", "shelter": "no", "tactile_paving": "no"}}, {"type": "node", "id": 3429660053, "lat": 39.9532081, "lon": -75.1529678, "tags": {"bench": "yes", "bin": "no", "bus": "yes", "highway": "bus_stop", "lit": "no", "public_transport": "platform", "ref": "4472", "shelter": "yes", "tactile_paving": "no"}}, {"type": "node", "id": 3439389459, "lat": 39.9542701, "lon": -75.1695993, "tags": {"bus": "yes", "highway": "bus_stop", "public_transport": "platform", "shelter": "yes"}}, {"type": "node", "id": 3439389467, "lat": 39.9540819, "lon": -75.1680882, "tags": {"bus": "yes", "highway": "bus_stop", "public_transport": "platform", "shelter": "yes"}}, {"type": "node", "id": 3453181056, "lat": 39.9546645, "lon": -75.1646497, "tags": {"bus": "yes", "highway": "bus_stop", "name": "Arch St & 15th St", "network": "SEPTA", "network:wikidata": "Q2037863", "operator": "SEPTA", "public_transport": "platform"}}, {"type": "node", "id": 3454064546, "lat": 39.9522877, "lon": -75.162122, "tags": {"bus": "yes", "highway": "bus_stop", "name": "Market St. At 13th St.", "network": "SEPTA", "network:wikidata": "Q2037863", "operator": "SEPTA", "public_transport": "platform", "shelter": "yes"}}, {"type": "node", "id": 3454064549, "lat": 39.9518618, "lon": -75.1586241, "tags": {"bench": "yes", "bus": "yes", "highway": "bus_stop", "public_transport": "platform", "shelter": "yes"}}, {"type": "node", "id": 3468863130, "lat": 39.9481225, "lon": -75.1539965, "tags": {"bus": "yes", "highway": "bus_stop", "public_transport": "platform"}}, {"type": "node", "id": 3475530938, "lat": 39.9501614, "lon": -75.1703967, "tags": {"bench": "yes", "bin": "yes", "bus": "yes", "highway": "bus_stop", "lit": "yes", "name": "Walnut St & 18th St", "network": "SEPTA", "network:wikidata": "Q2037863", "operator": "SEPTA", "public_transport": "platform", "ref": "14084", "shelter": "yes", "tactile_paving": "no"}}, {"type": "node", "id": 3475530939, "lat": 39.9503751, "lon": -75.1720843, "tags": {"bench": "yes", "bin": "no", "bus": "yes", "highway": "bus_stop", "lit": "yes", "name": "Walnut St & 19th St", "network": "SEPTA", "network:wikidata": "Q2037863", "operator": "SEPTA", "public_transport": "platform", "ref": "14085", "shelter": "yes", "tactile_paving": "no"}}, {"type": "node", "id": 3475530940, "lat": 39.9505688, "lon": -75.1736519, "tags": {"bench": "yes", "bin": "no", "bus": "yes", "highway": "bus_stop", "name": "Walnut St & 20th St", "network": "SEPTA", "network:wikidata": "Q2037863", "operator": "SEPTA", "public_transport": "platform", "shelter": "yes", "tactile_paving": "no"}}, {"type": "node", "id": 3476015084, "lat": 39.9508081, "lon": -75.1755623, "tags": {"bench": "no", "bin": "no", "bus": "yes", "highway": "bus_stop", "name": "Walnut St & 21st St", "network": "SEPTA", "network:wikidata": "Q2037863", "operator": "SEPTA", "public_transport": "platform", "shelter": "yes", "tactile_paving": "no"}}, {"type": "node", "id": 3476015085, "lat": 39.9511644, "lon": -75.1782928, "tags": {"bus": "yes", "highway": "bus_stop", "name": "Walnut St & 23rd St", "network": "SEPTA", "network:wikidata": "Q2037863", "operator": "SEPTA", "public_transport": "platform"}}, {"type": "node", "id": 3487491425, "lat": 39.9513015, "lon": -75.1670282, "tags": {"bench": "no", "bin": "no", "bus": "yes", "highway": "bus_stop", "public_transport": "platform", "shelter": "no", "tactile_paving": "no"}}, {"type": "node", "id": 3488810607, "lat": 39.9501776, "lon": -75.1588188, "tags": {"bench": "yes", "bin": "yes", "bus": "yes", "covered": "yes", "highway": "bus_stop", "lit": "yes", "network": "SEPTA", "network:wikidata": "Q2037863", "operator": "SEPTA", "public_transport": "platform", "ref": "6057", "shelter": "yes", "tactile_paving": "no"}}, {"type": "node", "id": 3488810609, "lat": 39.9503801, "lon": -75.1604094, "tags": {"bench": "yes", "bin": "no", "bus": "yes", "highway": "bus_stop", "lit": "yes", "name": "Chestnut St & 12th St", "network": "SEPTA", "network:wikidata": "Q2037863", "operator": "SEPTA", "public_transport": "platform", "ref": "6058", "shelter": "yes", "tactile_paving": "no"}}, {"type": "node", "id": 3499206771, "lat": 39.9485216, "lon": -75.1572493, "tags": {"bench": "no", "bin": "yes", "bus": "yes", "covered": "yes", "highway": "bus_stop", "lit": "yes", "network": "SEPTA", "network:wikidata": "Q2037863", "operator": "SEPTA", "public_transport": "platform", "ref": "14884", "shelter": "yes", "tactile_paving": "no"}}, {"type": "node", "id": 3504181482, "lat": 39.9556508, "lon": -75.1725768, "tags": {"bus": "yes", "covered": "yes", "highway": "bus_stop", "network": "SEPTA", "network:wikidata": "Q2037863", "operator": "SEPTA", "public_transport": "platform", "shelter": "yes"}}, {"type": "node", "id": 3527163514, "lat": 39.9505677, "lon": -75.1619632, "tags": {"bench": "yes", "bus": "yes", "highway": "bus_stop", "name": "Chestnut St & 13th St", "network": "SEPTA", "network:wikidata": "Q2037863", "operator": "SEPTA", "public_transport": "platform", "ref": "6059", "shelter": "yes", "tactile_paving": "no"}}, {"type": "node", "id": 3529171313, "lat": 39.9471343, "lon": -75.1648941, "tags": {"bench": "no", "bus": "yes", "highway": "bus_stop", "public_transport": "platform", "ref": "15188", "shelter": "no", "tactile_paving": "no"}}, {"type": "node", "id": 3529171314, "lat": 39.9457155, "lon": -75.1652004, "tags": {"bus": "yes", "highway": "bus_stop", "public_transport": "platform", "shelter": "yes"}}, {"type": "node", "id": 3529171315, "lat": 39.9401783, "lon": -75.1664002, "tags": {"bus": "yes", "highway": "bus_stop", "public_transport": "platform", "shelter": "yes"}}, {"type": "node", "id": 3532578447, "lat": 39.9490993, "lon": -75.1618723, "tags": {"bench": "yes", "bin": "yes", "bus": "yes", "highway": "bus_stop", "lit": "no", "public_transport": "platform", "ref": "14887", "shelter": "yes", "tactile_paving": "no"}}, {"type": "node", "id": 3540215363, "lat": 39.9484801, "lon": -75.1710988, "tags": {"bus": "yes", "highway": "bus_stop", "name": "Rittenhouse Sq & 18th St", "network": "SEPTA", "network:wikidata": "Q2037863", "operator": "SEPTA", "public_transport": "platform"}}, {"type": "node", "id": 3540604459, "lat": 39.9499285, "lon": -75.1688203, "tags": {"bench": "yes", "bin": "yes", "bus": "yes", "highway": "bus_stop", "public_transport": "platform", "shelter": "yes", "tactile_paving": "no"}}, {"type": "node", "id": 3545078818, "lat": 39.9506618, "lon": -75.1641282, "tags": {"bench": "yes", "bus": "yes", "highway": "bus_stop", "network": "SEPTA", "network:wikidata": "Q2037863", "operator": "SEPTA", "public_transport": "platform", "ref": "15185", "shelter": "yes", "tactile_paving": "no"}}, {"type": "node", "id": 3545078830, "lat": 39.9495875, "lon": -75.1657504, "tags": {"bench": "yes", "bin": "no", "bus": "yes", "highway": "bus_stop", "lit": "yes", "network": "SEPTA", "network:wikidata": "Q2037863", "operator": "SEPTA", "public_transport": "platform", "ref": "14079", "shelter": "yes", "tactile_paving": "no"}}, {"type": "node", "id": 3559047819, "lat": 39.9569467, "lon": -75.1993889, "tags": {"bus": "yes", "highway": "bus_stop", "name": "Market St & 39th St", "network": "SEPTA", "network:wikidata": "Q2037863", "operator": "SEPTA", "public_transport": "platform"}}, {"type": "node", "id": 3566597918, "lat": 39.9579025, "lon": -75.1770742, "tags": {"bench": "no", "bus": "yes", "covered": "no", "highway": "bus_stop", "name": "23rd St & Race St", "network": "SEPTA", "network:wikidata": "Q2037863", "operator": "SEPTA", "public_transport": "platform", "shelter": "no"}}, {"type": "node", "id": 3566597920, "lat": 39.9563598, "lon": -75.1774101, "tags": {"bench": "no", "bus": "yes", "covered": "no", "highway": "bus_stop", "name": "23rd St & Arch St", "network": "SEPTA", "network:wikidata": "Q2037863", "operator": "SEPTA", "public_transport": "platform", "shelter": "no"}}, {"type": "node", "id": 3590076676, "lat": 39.9453776, "lon": -75.1514983, "tags": {"bus": "yes", "highway": "bus_stop", "name": "Spruce St & 6th St", "network": "SEPTA", "network:wikidata": "Q2037863", "operator": "SEPTA", "public_transport": "platform"}}, {"type": "node", "id": 3590076818, "lat": 39.9467579, "lon": -75.1535055, "tags": {"bus": "yes", "highway": "bus_stop", "name": "Washington Sq & Locust St", "network": "SEPTA", "network:wikidata": "Q2037863", "operator": "SEPTA", "public_transport": "platform"}}, {"type": "node", "id": 3599791185, "lat": 39.9469222, "lon": -75.1546092, "tags": {"bench": "no", "bin": "no", "bus": "yes", "highway": "bus_stop", "name": "Locust St & 8th St", "network": "SEPTA", "network:wikidata": "Q2037863", "operator": "SEPTA", "public_transport": "platform", "shelter": "no", "tactile_paving": "no"}}, {"type": "node", "id": 3766057686, "lat": 39.9178121, "lon": -75.1592489, "tags": {"bus": "yes", "highway": "bus_stop", "network": "SEPTA", "network:wikidata": "Q2037863", "network:wikipedia": "en:SEPTA", "operator": "Septa", "public_transport": "platform"}}, {"type": "node", "id": 3919299658, "lat": 39.9782879, "lon": -75.2200632, "tags": {"bench": "yes", "bus": "yes", "covered": "yes", "highway": "bus_stop", "name": "50th St and Parkside Av", "network": "SEPTA", "public_transport": "platform", "shelter": "yes"}}, {"type": "node", "id": 4012138283, "lat": 39.9211019, "lon": -75.1933045, "tags": {"bus": "yes", "highway": "bus_stop", "public_transport": "platform"}}, {"type": "node", "id": 4119474875, "lat": 39.9817125, "lon": -75.2510229, "tags": {"bus": "yes", "highway": "bus_stop", "public_transport": "platform"}}, {"type": "node", "id": 4119474876, "lat": 39.9814748, "lon": -75.2511925, "tags": {"bus": "yes", "highway": "bus_stop", "public_transport": "platform"}}, {"type": "node", "id": 4119474877, "lat": 39.9797017, "lon": -75.2534974, "tags": {"bus": "yes", "highway": "bus_stop", "public_transport": "platform"}}, {"type": "node", "id": 4476047208, "lat": 39.9627106, "lon": -75.1558563, "tags": {"bus": "yes", "highway": "bus_stop", "name": "11th and Green (Bus 23)", "public_transport": "platform"}}, {"type": "node", "id": 4476047209, "lat": 39.9621583, "lon": -75.1576968, "tags": {"bus": "yes", "highway": "bus_stop", "name": "12th and Ridge", "public_transport": "platform"}}, {"type": "node", "id": 4476047210, "lat": 39.9630019, "lon": -75.1575163, "tags": {"bus": "yes", "highway": "bus_stop", "name": "12th and Green", "public_transport": "platform"}}, {"type": "node", "id": 4488903707, "lat": 39.9604971, "lon": -75.2021822, "tags": {"bus": "yes", "highway": "bus_stop", "name": "40th and Baring Stop", "network": "SEPTA", "network:wikidata": "Q2037863", "operator": "Septa", "public_transport": "platform"}}, {"type": "node", "id": 4806650198, "lat": 39.9806292, "lon": -75.1537126, "tags": {"bench": "yes", "bin": "no", "bus": "yes", "highway": "bus_stop", "name": "Temple Shuttle Stop", "public_transport": "platform", "shelter": "yes", "tactile_paving": "no"}}, {"type": "node", "id": 5529527994, "lat": 39.9735242, "lon": -75.1622854, "tags": {"bus": "yes", "highway": "bus_stop", "internet_access": "no", "name": "16th St &Thompson St", "public_transport": "platform"}}, {"type": "node", "id": 5529528038, "lat": 39.9751529, "lon": -75.1636735, "tags": {"bus": "yes", "highway": "bus_stop", "name": "17 St & Master Str", "public_transport": "platform"}}, {"type": "node", "id": 5534957696, "lat": 40.0741081, "lon": -75.1910502, "tags": {"bench": "no", "bus": "yes", "highway": "bus_stop", "lit": "yes", "network": "SEPTA", "network:wikidata": "Q2037863", "public_transport": "platform", "shelter": "no"}}, {"type": "node", "id": 5534957697, "lat": 40.0735328, "lon": -75.1900551, "tags": {"bench": "no", "bus": "yes", "highway": "bus_stop", "lit": "yes", "network": "SEPTA", "network:wikidata": "Q2037863", "public_transport": "platform", "shelter": "no"}}, {"type": "node", "id": 5633921630, "lat": 39.9607043, "lon": -75.1736111, "tags": {"bench": "yes", "bin": "yes", "bus": "yes", "highway": "bus_stop", "network": "SEPTA", "network:wikidata": "Q2037863", "operator": "Septa", "public_transport": "platform", "ref": "16569", "shelter": "no", "tactile_paving": "no"}}, {"type": "node", "id": 5634926043, "lat": 39.9450742, "lon": -75.1785541, "tags": {"addr:street": "S 22nd St", "bench": "yes", "bin": "no", "bus": "yes", "highway": "bus_stop", "lit": "yes", "name": "22nd St-South St", "public_transport": "platform", "ref": "25069", "shelter": "yes", "tactile_paving": "no"}}, {"type": "node", "id": 5685276172, "lat": 39.9780949, "lon": -75.273342, "tags": {"bench": "no", "bus": "yes", "highway": "bus_stop", "name": "City Avenue Mainline Shipping Center", "network": "SEPTA", "network:wikidata": "Q2037863", "operator": "SEPTA", "public_transport": "platform", "route_ref": "103", "route_ref_1": "31", "shelter": "no"}}, {"type": "node", "id": 5685276173, "lat": 39.9779839, "lon": -75.2734151, "tags": {"bench": "no", "bus": "yes", "highway": "bus_stop", "name": "City Avenue Mainline Shipping Center", "network": "SEPTA", "network:wikidata": "Q2037863", "operator": "SEPTA", "public_transport": "platform", "route_ref": "103", "route_ref_1": "31", "shelter": "no"}}, {"type": "node", "id": 5723374722, "lat": 39.9511933, "lon": -75.1532848, "tags": {"bench": "yes", "bus": "yes", "highway": "bus_stop", "lit": "yes", "network": "SEPTA", "network:wikidata": "Q2037863", "operator": "SEPTA", "public_transport": "platform", "shelter": "yes"}}, {"type": "node", "id": 5723374731, "lat": 39.9513183, "lon": -75.1557221, "tags": {"bench": "yes", "bus": "yes", "highway": "bus_stop", "lit": "yes", "network": "SEPTA", "network:wikidata": "Q2037863", "operator": "SEPTA", "public_transport": "platform", "shelter": "yes"}}, {"type": "node", "id": 5723387982, "lat": 39.9488447, "lon": -75.1691887, "tags": {"bench": "yes", "bus": "yes", "highway": "bus_stop", "lit": "yes", "network": "SEPTA", "network:wikidata": "Q2037863", "operator": "SEPTA", "public_transport": "platform", "shelter": "yes"}}, {"type": "node", "id": 5924978558, "lat": 40.0234881, "lon": -75.0776354, "tags": {"bus": "yes", "highway": "bus_stop", "public_transport": "platform", "route_ref": "D"}}, {"type": "node", "id": 5924978559, "lat": 40.0234979, "lon": -75.0770205, "tags": {"bus": "yes", "highway": "bus_stop", "public_transport": "platform", "route_ref": "25"}}, {"type": "node", "id": 5924978560, "lat": 40.0236658, "lon": -75.0770004, "tags": {"bus": "yes", "highway": "bus_stop", "public_transport": "platform", "route_ref": "73"}}, {"type": "node", "id": 5924978561, "lat": 40.0238265, "lon": -75.0769763, "tags": {"bus": "yes", "highway": "bus_stop", "public_transport": "platform", "route_ref": "84"}}, {"type": "node", "id": 5924978562, "lat": 40.0241829, "lon": -75.0779734, "tags": {"bus": "yes", "highway": "bus_stop", "public_transport": "platform", "route_ref": "88"}}, {"type": "node", "id": 5924978563, "lat": 40.0242029, "lon": -75.0780465, "tags": {"bus": "yes", "highway": "bus_stop", "public_transport": "platform", "route_ref": "8;26"}}, {"type": "node", "id": 5924978564, "lat": 40.0240884, "lon": -75.0778681, "tags": {"bus": "yes", "highway": "bus_stop", "public_transport": "platform", "route_ref": "19"}}, {"type": "node", "id": 5924978565, "lat": 40.023882, "lon": -75.0776582, "tags": {"bus": "yes", "highway": "bus_stop", "public_transport": "platform", "route_ref": "67"}}, {"type": "node", "id": 5924978566, "lat": 40.0237289, "lon": -75.077683, "tags": {"bus": "yes", "highway": "bus_stop", "public_transport": "platform", "route_ref": "R"}}, {"type": "node", "id": 5924978567, "lat": 40.0229335, "lon": -75.0781531, "tags": {"bus": "yes", "highway": "bus_stop", "public_transport": "platform", "route_ref": "8 to Frankford;R to Frankford"}}, {"type": "node", "id": 5924978568, "lat": 40.0233536, "lon": -75.0777836, "tags": {"bus": "yes", "highway": "bus_stop", "public_transport": "platform", "route_ref": "14;MFO"}}, {"type": "node", "id": 5924978569, "lat": 40.0236884, "lon": -75.0774819, "tags": {"bus": "yes", "highway": "bus_stop", "public_transport": "platform", "route_ref": "20"}}, {"type": "node", "id": 5924978570, "lat": 40.0238845, "lon": -75.0774403, "tags": {"bus": "yes", "highway": "bus_stop", "public_transport": "platform", "route_ref": "20 Express;50"}}, {"type": "node", "id": 5924978571, "lat": 40.0239194, "lon": -75.0771305, "tags": {"bus": "yes", "highway": "bus_stop", "public_transport": "platform", "route_ref": "66"}}, {"type": "node", "id": 5924978572, "lat": 40.0235276, "lon": -75.0772351, "tags": {"bus": "yes", "highway": "bus_stop", "public_transport": "platform", "route_ref": "66 to Frankford"}}, {"type": "node", "id": 5924978573, "lat": 40.0234753, "lon": -75.077451, "tags": {"bus": "yes", "highway": "bus_stop", "public_transport": "platform", "route_ref": "14 to Frankford;19 to Frankford;20 to Frankford;24 to Frankford;26 to Frankford;50 to Frankford;58 to Frankford;67 to Frankford;88 to Frankford;MFO to Frankford"}}, {"type": "node", "id": 5924978574, "lat": 40.0231148, "lon": -75.0775583, "tags": {"bus": "yes", "highway": "bus_stop", "public_transport": "platform", "route_ref": "58"}}, {"type": "node", "id": 5924978575, "lat": 40.0229864, "lon": -75.0776897, "tags": {"bus": "yes", "highway": "bus_stop", "public_transport": "platform", "route_ref": "58"}}, {"type": "node", "id": 5924978576, "lat": 40.0228776, "lon": -75.0778192, "tags": {"bus": "yes", "highway": "bus_stop", "public_transport": "platform", "route_ref": "paratransit"}}, {"type": "node", "id": 5924978577, "lat": 40.0227903, "lon": -75.0779466, "tags": {"bus": "yes", "highway": "bus_stop", "public_transport": "platform", "route_ref": "paratransit"}}, {"type": "node", "id": 5924978578, "lat": 40.0226819, "lon": -75.0781035, "tags": {"bus": "yes", "highway": "bus_stop", "public_transport": "platform", "route_ref": "24"}}, {"type": "node", "id": 5924978579, "lat": 40.0230229, "lon": -75.079008, "tags": {"bus": "yes", "highway": "bus_stop", "public_transport": "platform", "route_ref": "3 (peak only)"}}, {"type": "node", "id": 5924978580, "lat": 40.0226624, "lon": -75.0784528, "tags": {"bus": "yes", "highway": "bus_stop", "public_transport": "platform", "route_ref": "3 to Frankford;5 to Frankford"}}, {"type": "node", "id": 5924978581, "lat": 40.0229109, "lon": -75.078835, "tags": {"bus": "yes", "highway": "bus_stop", "public_transport": "platform", "route_ref": "3"}}, {"type": "node", "id": 5924978582, "lat": 40.0227805, "lon": -75.0786379, "tags": {"bus": "yes", "highway": "bus_stop", "public_transport": "platform", "route_ref": "5"}}, {"type": "node", "id": 5995917530, "lat": 39.9768722, "lon": -75.2723362, "tags": {"bench": "no", "bus": "yes", "highway": "bus_stop", "name": "77th St & Overbrook Av", "network": "SEPTA", "network:wikidata": "Q2037863", "operator": "SEPTA", "public_transport": "platform", "route_ref": "103", "shelter": "no"}}, {"type": "node", "id": 5995917531, "lat": 39.9770232, "lon": -75.2726607, "tags": {"bench": "no", "bus": "yes", "highway": "bus_stop", "name": "77th St & Overbrook Av", "network": "SEPTA", "network:wikidata": "Q2037863", "operator": "SEPTA", "public_transport": "platform", "route_ref": "103", "shelter": "no"}}, {"type": "node", "id": 5995917532, "lat": 39.975674, "lon": -75.2713588, "tags": {"bench": "no", "bus": "yes", "highway": "bus_stop", "name": "77th St & Sherwood Rd", "network": "SEPTA", "network:wikidata": "Q2037863", "operator": "SEPTA", "public_transport": "platform", "route_ref": "103", "shelter": "no"}}, {"type": "node", "id": 5995917538, "lat": 39.9745832, "lon": -75.2704839, "tags": {"bench": "no", "bus": "yes", "highway": "bus_stop", "name": "77th St & Brookhaven Rd", "network": "SEPTA", "network:wikidata": "Q2037863", "operator": "SEPTA", "public_transport": "platform", "route_ref": "103", "shelter": "no"}}, {"type": "node", "id": 5995917539, "lat": 39.9747228, "lon": -75.27075, "tags": {"bench": "no", "bus": "yes", "highway": "bus_stop", "name": "77th St & Brookhaven Rd", "network": "SEPTA", "network:wikidata": "Q2037863", "operator": "SEPTA", "public_transport": "platform", "route_ref": "103", "shelter": "no"}}, {"type": "node", "id": 5995917540, "lat": 39.9737476, "lon": -75.2696619, "tags": {"bench": "no", "bus": "yes", "highway": "bus_stop", "name": "77th St & Woodbine Ave", "network": "SEPTA", "network:wikidata": "Q2037863", "operator": "SEPTA", "public_transport": "platform", "route_ref": "103", "shelter": "no"}}, {"type": "node", "id": 5995917541, "lat": 39.9736903, "lon": -75.2699351, "tags": {"bench": "no", "bus": "yes", "highway": "bus_stop", "name": "77th St & Woodbine Ave", "network": "SEPTA", "network:wikidata": "Q2037863", "operator": "SEPTA", "public_transport": "platform", "route_ref": "103", "shelter": "no"}}, {"type": "node", "id": 5995917542, "lat": 39.9747899, "lon": -75.2675438, "tags": {"bench": "no", "bus": "yes", "highway": "bus_stop", "name": "Woodbine Ave and 76th St", "network": "SEPTA", "network:wikidata": "Q2037863", "operator": "SEPTA", "public_transport": "platform", "route_ref": "103", "shelter": "no"}}, {"type": "node", "id": 5995917543, "lat": 39.9745458, "lon": -75.2677013, "tags": {"bench": "no", "bus": "yes", "highway": "bus_stop", "name": "Woodbine Ave and 76th St", "network": "SEPTA", "network:wikidata": "Q2037863", "operator": "SEPTA", "public_transport": "platform", "route_ref": "103", "shelter": "no"}}, {"type": "node", "id": 5995917544, "lat": 39.9757432, "lon": -75.2655176, "tags": {"bench": "no", "bus": "yes", "highway": "bus_stop", "name": "Woodbine Ave and 75th St", "network": "SEPTA", "network:wikidata": "Q2037863", "operator": "SEPTA", "public_transport": "platform", "route_ref": "103", "shelter": "no"}}, {"type": "node", "id": 5995917545, "lat": 39.9755262, "lon": -75.2656786, "tags": {"bench": "no", "bus": "yes", "highway": "bus_stop", "name": "Woodbine Ave and 75th St", "network": "SEPTA", "network:wikidata": "Q2037863", "operator": "SEPTA", "public_transport": "platform", "route_ref": "103", "shelter": "no"}}, {"type": "node", "id": 5995917546, "lat": 39.9744156, "lon": -75.2641196, "tags": {"bench": "no", "bus": "yes", "highway": "bus_stop", "name": "75th and Malvern Ave", "network": "SEPTA", "network:wikidata": "Q2037863", "operator": "SEPTA", "public_transport": "platform", "route_ref": "103", "shelter": "no"}}, {"type": "node", "id": 5995917547, "lat": 39.9744617, "lon": -75.2644045, "tags": {"bench": "no", "bus": "yes", "highway": "bus_stop", "name": "75th and Malvern Ave", "network": "SEPTA", "network:wikidata": "Q2037863", "operator": "SEPTA", "public_transport": "platform", "route_ref": "103", "shelter": "no"}}, {"type": "node", "id": 5995917548, "lat": 39.9730649, "lon": -75.2622438, "tags": {"bench": "no", "bus": "yes", "highway": "bus_stop", "name": "75th and Brockton Rd", "network": "SEPTA", "network:wikidata": "Q2037863", "operator": "SEPTA", "public_transport": "platform", "route_ref": "103", "shelter": "no"}}, {"type": "node", "id": 5995917549, "lat": 39.9730228, "lon": -75.2624296, "tags": {"bench": "no", "bus": "yes", "highway": "bus_stop", "name": "75th and Brockton Rd", "network": "SEPTA", "network:wikidata": "Q2037863", "operator": "SEPTA", "public_transport": "platform", "route_ref": "103", "shelter": "no"}}, {"type": "node", "id": 5995917550, "lat": 39.9726255, "lon": -75.260161, "tags": {"bench": "no", "bus": "yes", "highway": "bus_stop", "name": "75th St & Lansdowne Av", "network": "SEPTA", "network:wikidata": "Q2037863", "operator": "SEPTA", "public_transport": "platform", "route_ref": "103", "shelter": "no"}}, {"type": "node", "id": 5995917551, "lat": 39.9723516, "lon": -75.2602636, "tags": {"bench": "no", "bus": "yes", "highway": "bus_stop", "name": "75th St & Lansdowne Av", "network": "SEPTA", "network:wikidata": "Q2037863", "operator": "SEPTA", "public_transport": "platform", "route_ref": "103", "shelter": "no"}}, {"type": "node", "id": 6028779485, "lat": 39.950731, "lon": -75.150861, "tags": {"bench": "no", "bin": "no", "bus": "yes", "highway": "bus_stop", "name": "Megabus to NYC", "public_transport": "platform", "shelter": "no", "tactile_paving": "no"}}, {"type": "node", "id": 6280182195, "lat": 40.0040566, "lon": -75.2201696, "tags": {"bus": "yes", "description": "Bus Station", "highway": "bus_stop", "name": "City Av & Belmont Av - FS", "public_transport": "platform"}}, {"type": "node", "id": 6595453648, "lat": 39.9706259, "lon": -75.1497742, "tags": {"bench": "no", "bin": "no", "bus": "yes", "highway": "bus_stop", "lit": "no", "network": "SEPTA", "network:wikidata": "Q2037863", "public_transport": "platform", "ref": "20999", "shelter": "yes", "tactile_paving": "yes"}}, {"type": "node", "id": 6596209452, "lat": 39.9664703, "lon": -75.216781, "tags": {"bench": "yes", "bus": "yes", "departures_board": "no", "highway": "bus_stop", "lit": "yes", "network": "SEPTA", "network:wikidata": "Q2037863", "public_transport": "platform", "shelter": "yes"}}, {"type": "node", "id": 6596209453, "lat": 39.9584002, "lon": -75.213994, "tags": {"bus": "yes", "departures_board": "no", "highway": "bus_stop", "network": "SEPTA", "public_transport": "platform", "shelter": "yes"}}, {"type": "node", "id": 6598603420, "lat": 40.0348434, "lon": -75.1174273, "tags": {"bus": "yes", "departures_board": "no", "highway": "bus_stop", "network": "SEPTA", "network:wikidata": "Q2037863", "network:wikipedia": "en:SEPTA", "operator": "SEPTA", "public_transport": "platform", "shelter": "no"}}, {"type": "node", "id": 6598603421, "lat": 40.034763, "lon": -75.1177125, "tags": {"bus": "yes", "departures_board": "no", "highway": "bus_stop", "network": "SEPTA", "network:wikidata": "Q2037863", "network:wikipedia": "en:SEPTA", "note": "There is no sign here, but this is still a bus stop", "operator": "SEPTA", "public_transport": "platform", "shelter": "no"}}, {"type": "node", "id": 6598603422, "lat": 40.0388619, "lon": -75.1185891, "tags": {"bus": "yes", "departures_board": "no", "highway": "bus_stop", "network": "SEPTA", "network:wikidata": "Q2037863", "network:wikipedia": "en:SEPTA", "operator": "SEPTA", "public_transport": "platform"}}, {"type": "node", "id": 6598603423, "lat": 40.0386703, "lon": -75.1449712, "tags": {"bench": "yes", "bus": "yes", "departures_board": "no", "highway": "bus_stop", "lit": "yes", "network": "SEPTA", "network:wikidata": "Q2037863", "network:wikipedia": "en:SEPTA", "operator": "SEPTA", "public_transport": "platform", "shelter": "yes"}}, {"type": "node", "id": 6598603429, "lat": 39.9716388, "lon": -75.1596031, "tags": {"bench": "yes", "bus": "yes", "departures_board": "no", "highway": "bus_stop", "network": "SEPTA", "network:wikidata": "Q2037863", "note": "not visible on Mapbox imagery or Streetside", "operator": "SEPTA", "public_transport": "platform", "shelter": "yes"}}, {"type": "node", "id": 6598603433, "lat": 40.0094084, "lon": -75.1509434, "tags": {"bus": "yes", "highway": "bus_stop", "network": "SEPTA", "network:wikidata": "Q2037863", "operator": "SEPTA", "public_transport": "platform", "shelter": "yes"}}, {"type": "node", "id": 6606148838, "lat": 39.9541661, "lon": -75.202355, "tags": {"bench": "yes", "bus": "yes", "departures_board": "no", "highway": "bus_stop", "network": "SEPTA", "network:wikidata": "Q2037863", "operator": "SEPTA", "public_transport": "platform", "shelter": "yes"}}, {"type": "node", "id": 6610166210, "lat": 39.9629431, "lon": -75.2241687, "tags": {"bus": "yes", "departures_board": "no", "highway": "bus_stop", "network": "SEPTA", "operator": "SEPTA", "public_transport": "platform", "shelter": "no"}}, {"type": "node", "id": 6610166211, "lat": 39.9647484, "lon": -75.2246704, "tags": {"bus": "yes", "departures_board": "no", "highway": "bus_stop", "network": "SEPTA", "operator": "SEPTA", "public_transport": "platform", "shelter": "no"}}, {"type": "node", "id": 6610166220, "lat": 39.9675761, "lon": -75.216916, "tags": {"bus": "yes", "departures_board": "no", "highway": "bus_stop", "network": "SEPTA", "operator": "SEPTA", "public_transport": "platform", "ref": "25593", "shelter": "no"}}, {"type": "node", "id": 6611596715, "lat": 40.0171718, "lon": -75.1496208, "tags": {"bench": "yes", "bus": "yes", "departures_board": "no", "highway": "bus_stop", "network": "SEPTA", "network:wikidata": "Q2037863", "operator": "SEPTA", "public_transport": "platform", "shelter": "yes"}}, {"type": "node", "id": 6611596718, "lat": 40.030064, "lon": -75.1184929, "tags": {"bench": "no", "bus": "yes", "departures_board": "no", "highway": "bus_stop", "network": "SEPTA", "network:wikidata": "Q2037863", "network:wikipedia": "en:SEPTA", "operator": "SEPTA", "public_transport": "platform", "shelter": "no"}}, {"type": "node", "id": 6612597411, "lat": 40.0384644, "lon": -75.117158, "tags": {"bench": "no", "bus": "yes", "departures_board": "no", "highway": "bus_stop", "network": "SEPTA", "network:wikidata": "Q2037863", "network:wikipedia": "en:SEPTA", "operator": "SEPTA", "public_transport": "platform", "shelter": "no"}}, {"type": "node", "id": 6612597447, "lat": 40.0370506, "lon": -75.1191271, "tags": {"bench": "no", "bus": "yes", "departures_board": "no", "highway": "bus_stop", "network": "SEPTA", "network:wikidata": "Q2037863", "network:wikipedia": "en:SEPTA", "operator": "SEPTA", "public_transport": "platform", "shelter": "no"}}, {"type": "node", "id": 6612597474, "lat": 40.0353156, "lon": -75.1211885, "tags": {"bench": "no", "bus": "yes", "departures_board": "no", "highway": "bus_stop", "network": "SEPTA", "network:wikidata": "Q2037863", "network:wikipedia": "en:SEPTA", "operator": "SEPTA", "public_transport": "platform", "shelter": "no"}}, {"type": "node", "id": 6612597477, "lat": 40.0369797, "lon": -75.1211477, "tags": {"bench": "no", "bus": "yes", "departures_board": "no", "highway": "bus_stop", "network": "SEPTA", "network:wikidata": "Q2037863", "network:wikipedia": "en:SEPTA", "operator": "SEPTA", "public_transport": "platform", "shelter": "no"}}, {"type": "node", "id": 6618646884, "lat": 39.9540859, "lon": -75.1764849, "tags": {"bench": "no", "bus": "yes", "departures_board": "no", "highway": "bus_stop", "network": "SEPTA", "network:wikidata": "Q2037863", "network:wikipedia": "en:SEPTA", "operator": "SEPTA", "public_transport": "platform", "ref": "10281", "shelter": "no"}}, {"type": "node", "id": 6618653500, "lat": 39.965532, "lon": -75.2132643, "tags": {"bench": "no", "bus": "yes", "departures_board": "no", "highway": "bus_stop", "network": "SEPTA", "operator": "SEPTA", "public_transport": "platform", "shelter": "no"}}, {"type": "node", "id": 6625248815, "lat": 39.9497636, "lon": -75.1423368, "tags": {"bus": "yes", "highway": "bus_stop", "public_transport": "platform"}}, {"type": "node", "id": 6625248816, "lat": 39.9498622, "lon": -75.1423125, "tags": {"bus": "yes", "highway": "bus_stop", "public_transport": "platform"}}, {"type": "node", "id": 6625432771, "lat": 39.9500203, "lon": -75.1433327, "tags": {"bus": "yes", "highway": "bus_stop", "public_transport": "platform"}}, {"type": "node", "id": 6648434695, "lat": 39.8994309, "lon": -75.1937781, "tags": {"highway": "bus_stop"}}, {"type": "node", "id": 6648434730, "lat": 39.8894285, "lon": -75.1872926, "tags": {"highway": "bus_stop"}}, {"type": "node", "id": 6651112809, "lat": 39.8908642, "lon": -75.1666583, "tags": {"highway": "bus_stop"}}, {"type": "node", "id": 6651112842, "lat": 39.8966078, "lon": -75.1711, "tags": {"highway": "bus_stop"}}, {"type": "node", "id": 6651112878, "lat": 39.8963152, "lon": -75.1756563, "tags": {"highway": "bus_stop"}}, {"type": "node", "id": 6651112892, "lat": 39.8904722, "lon": -75.171633, "tags": {"highway": "bus_stop"}}, {"type": "node", "id": 6651112924, "lat": 39.8901676, "lon": -75.1757207, "tags": {"highway": "bus_stop"}}, {"type": "node", "id": 6651112948, "lat": 39.8971121, "lon": -75.174119, "tags": {"highway": "bus_stop"}}, {"type": "node", "id": 6651112977, "lat": 39.892211, "lon": -75.1668707, "tags": {"highway": "bus_stop"}}, {"type": "node", "id": 6651113089, "lat": 39.893968, "lon": -75.1762322, "tags": {"highway": "bus_stop"}}, {"type": "node", "id": 6741973548, "lat": 40.0344307, "lon": -75.1151066, "tags": {"bus": "yes", "departures_board": "no", "highway": "bus_stop", "network": "SEPTA", "network:wikidata": "Q2037863", "network:wikipedia": "en:SEPTA", "operator": "SEPTA", "public_transport": "platform", "shelter": "no"}}, {"type": "node", "id": 6832966485, "lat": 39.9530169, "lon": -75.1580033, "tags": {"bus": "yes", "highway": "bus_stop", "name": "Focus Travel Agency", "public_transport": "platform"}}, {"type": "node", "id": 6835289641, "lat": 40.0767725, "lon": -75.207835, "tags": {"bus": "yes", "highway": "bus_stop", "network": "SEPTA", "network:wikidata": "Q2037863", "operator": "South Eastern Pennsylvania Transportation Authority", "operator:wikidata": "Q2037863", "public_transport": "platform", "ref": "250"}}, {"type": "node", "id": 7025772297, "lat": 39.9757722, "lon": -75.2716428, "tags": {"bus": "yes", "highway": "bus_stop", "name": "77th St & Sherwood Rd", "network": "SEPTA", "network:wikidata": "Q2037863", "operator": "SEPTA", "public_transport": "platform", "route_ref": "103"}}, {"type": "node", "id": 7167585620, "lat": 39.9509078, "lon": -75.150925, "tags": {"brand": "FlixBus", "brand:wikidata": "Q15712258", "bus": "yes", "highway": "bus_stop", "name": "FlixBus Philadelphia Market Street", "public_transport": "platform"}}, {"type": "node", "id": 7204646235, "lat": 39.9573689, "lon": -75.2020016, "tags": {"bench": "no", "bus": "yes", "highway": "bus_stop", "name": "40th Street & Market Street", "network": "SEPTA", "network:wikidata": "Q2037863", "public_transport": "platform", "railway": "platform", "shelter": "no", "tram": "yes"}}, {"type": "node", "id": 7206807112, "lat": 39.9650584, "lon": -75.2052574, "tags": {"bus": "yes", "highway": "bus_stop", "name": "Lancaster Avenue & 41st Street", "network": "SEPTA", "network:wikidata": "Q2037863", "public_transport": "platform", "railway": "platform", "tram": "yes"}}, {"type": "node", "id": 7206807116, "lat": 39.963868, "lon": -75.203328, "tags": {"bus": "yes", "highway": "bus_stop", "name": "Lancaster Avenue & Wallace Street", "network": "SEPTA", "network:wikidata": "Q2037863", "public_transport": "platform", "railway": "platform", "tram": "yes"}}, {"type": "node", "id": 7206807118, "lat": 39.9632011, "lon": -75.2025879, "tags": {"bus": "yes", "highway": "bus_stop", "name": "Lancaster Avenue & 40th Street", "network": "SEPTA", "network:wikidata": "Q2037863", "public_transport": "platform", "railway": "platform", "tram": "yes"}}, {"type": "node", "id": 7206807119, "lat": 39.9651473, "lon": -75.2056981, "tags": {"bus": "yes", "highway": "bus_stop", "name": "Lancaster Avenue & 41st Street", "network": "SEPTA", "network:wikidata": "Q2037863", "public_transport": "platform", "railway": "platform", "tram": "yes"}}, {"type": "node", "id": 7206871335, "lat": 39.9407992, "lon": -75.2124119, "tags": {"bus": "yes", "highway": "bus_stop", "name": "49th Street & Woodland Avenue", "network": "SEPTA", "network:wikidata": "Q2037863", "public_transport": "platform", "railway": "platform", "tram": "yes"}}, {"type": "node", "id": 7206871342, "lat": 39.9401178, "lon": -75.2137826, "tags": {"bus": "yes", "highway": "bus_stop", "name": "Woodland Avenue & 50th Street", "network": "SEPTA", "network:wikidata": "Q2037863", "public_transport": "platform", "railway": "platform", "tram": "yes"}}, {"type": "node", "id": 7206871359, "lat": 39.9485595, "lon": -75.2069307, "tags": {"bus": "yes", "highway": "bus_stop", "name": "Chester Avenue & 42nd Street", "network": "SEPTA", "public_transport": "platform", "railway": "platform", "tram": "yes"}}, {"type": "node", "id": 7301328710, "lat": 40.0061497, "lon": -75.1865727, "tags": {"bus": "yes", "highway": "bus_stop", "local_ref": "35th & Allegheny Loop", "public_transport": "platform"}}, {"type": "node", "id": 7973722885, "lat": 39.9483541, "lon": -75.1442378, "tags": {"bench": "no", "bus": "yes", "highway": "bus_stop", "name": "Chestnut Street & South 2nd Street", "public_transport": "platform", "route_ref": "21;42", "shelter": "no"}}, {"type": "node", "id": 7973722890, "lat": 39.9488546, "lon": -75.1481199, "tags": {"bus": "yes", "highway": "bus_stop", "name": "Chestnut Street @ Second Bank Of The United States", "public_transport": "platform", "route_ref": "9;21;42"}}, {"type": "node", "id": 7976913478, "lat": 39.9501178, "lon": -75.1459569, "tags": {"bus": "yes", "highway": "bus_stop", "name": "Market Street & South 3rd Street", "public_transport": "platform", "route_ref": "17;33;48"}}, {"type": "node", "id": 7976913481, "lat": 39.9506774, "lon": -75.1506649, "tags": {"bench": "yes", "bin": "no", "bus": "yes", "highway": "bus_stop", "name": "Market Street & South 6th Street", "public_transport": "platform", "route_ref": "17;33;48;Megabus", "shelter": "yes", "tactile_paving": "no"}}, {"type": "node", "id": 7976943917, "lat": 39.949002, "lon": -75.160584, "tags": {"bench": "no", "bus": "yes", "highway": "bus_stop", "name": "North 12th Street & Walnut Street", "public_transport": "platform", "ref": "16132", "route_ref": "23;45", "shelter": "yes", "tactile_paving": "no"}}, {"type": "node", "id": 7976943923, "lat": 39.9489313, "lon": -75.1604196, "tags": {"bench": "no", "bin": "yes", "bus": "yes", "highway": "bus_stop", "lit": "yes", "name": "Walnut Street & North 12th Street", "public_transport": "platform", "ref": "14886", "route_ref": "9;12;21;42", "shelter": "no", "tactile_paving": "no"}}, {"type": "node", "id": 7976943933, "lat": 39.9478055, "lon": -75.1527606, "tags": {"bench": "no", "bin": "no", "bus": "yes", "highway": "bus_stop", "lit": "yes", "name": "North 7th Street & Walnut Street", "public_transport": "platform", "ref": "18515", "route_ref": "47", "shelter": "no", "tactile_paving": "no"}}, {"type": "node", "id": 7976962579, "lat": 39.9510128, "lon": -75.1771976, "tags": {"bench": "no", "bin": "no", "bus": "yes", "departures_board": "no", "highway": "bus_stop", "name": "Walnut Street & South 22nd Street", "public_transport": "platform", "route_ref": "9;12;21;42", "shelter": "yes", "tactile_paving": "no"}}, {"type": "node", "id": 7977009030, "lat": 39.9544742, "lon": -75.1629424, "tags": {"bench": "no", "bus": "yes", "highway": "bus_stop", "name": "Arch Street & North Broad Street", "public_transport": "platform", "route_ref": "48", "shelter": "no"}}, {"type": "node", "id": 7977031966, "lat": 39.9523628, "lon": -75.176897, "tags": {"bench": "no", "bin": "yes", "bus": "yes", "highway": "bus_stop", "name": "South 22nd Street & Chestnut Street", "public_transport": "platform", "route_ref": "7", "shelter": "yes", "tactile_paving": "no"}}, {"type": "node", "id": 7977031968, "lat": 39.9577641, "lon": -75.1757984, "tags": {"bus": "yes", "highway": "bus_stop", "name": "North 22nd Street & Race Street", "public_transport": "platform", "route_ref": "7;48"}}, {"type": "node", "id": 7977031970, "lat": 39.9547182, "lon": -75.1815737, "tags": {"bench": "no", "bus": "yes", "highway": "bus_stop", "name": "Market Street & Schuykill Avenue", "public_transport": "platform", "route_ref": "31;49", "shelter": "no"}}, {"type": "node", "id": 7977031972, "lat": 39.9524097, "lon": -75.1767486, "tags": {"bench": "yes", "bin": "no", "bus": "yes", "highway": "bus_stop", "name": "Chestnut Street & South 22nd Street", "public_transport": "platform", "shelter": "yes", "tactile_paving": "no"}}, {"type": "node", "id": 8110318655, "lat": 39.9747451, "lon": -75.1852754, "tags": {"highway": "bus_stop", "name": "Route 15", "public_transport": "platform", "trolleybus": "yes"}}, {"type": "node", "id": 8825246805, "lat": 39.9487064, "lon": -75.1588315, "tags": {"bench": "yes", "bin": "yes", "bus": "yes", "highway": "bus_stop", "public_transport": "platform", "shelter": "yes"}}, {"type": "node", "id": 8878373143, "lat": 39.9339046, "lon": -75.1494178, "tags": {"bus": "yes", "highway": "bus_stop", "name": "57 To Whitman Plaza", "network": "SEPTA", "network:wikidata": "Q2037863", "network:wikipedia": "en:SEPTA", "operator": "Septa", "public_transport": "platform", "ref": "31338"}}, {"type": "node", "id": 8878373144, "lat": 39.9337889, "lon": -75.1485503, "tags": {"bus": "yes", "highway": "bus_stop", "name": "57 To Whitman Plaza", "network": "SEPTA", "network:wikidata": "Q2037863", "network:wikipedia": "en:SEPTA", "operator": "Septa", "public_transport": "platform", "ref": "31339"}}, {"type": "node", "id": 8878373145, "lat": 39.9336974, "lon": -75.1492664, "tags": {"bus": "yes", "highway": "bus_stop", "name": "57 To Fern Rock", "network": "SEPTA", "network:wikidata": "Q2037863", "network:wikipedia": "en:SEPTA", "operator": "Septa", "public_transport": "platform", "ref": "856"}}, {"type": "node", "id": 8878373146, "lat": 39.936394, "lon": -75.1486651, "tags": {"bus": "yes", "highway": "bus_stop", "name": "57 To Fern Rock", "network": "SEPTA", "network:wikidata": "Q2037863", "network:wikipedia": "en:SEPTA", "operator": "Septa", "public_transport": "platform", "ref": "17543"}}, {"type": "node", "id": 8878373147, "lat": 39.9404544, "lon": -75.1477639, "tags": {"bus": "yes", "highway": "bus_stop", "name": "57 To Fern Rock", "network": "SEPTA", "network:wikidata": "Q2037863", "operator": "Septa", "public_transport": "platform", "ref": "17552"}}, {"type": "node", "id": 8878373148, "lat": 39.941331, "lon": -75.1475707, "tags": {"bus": "yes", "highway": "bus_stop", "name": "57 To Fern Rock", "network": "SEPTA", "network:wikidata": "Q2037863", "operator": "Septa", "public_transport": "platform", "ref": "17554"}}, {"type": "node", "id": 8878395934, "lat": 39.944985, "lon": -75.1483205, "tags": {"bin": "yes", "bus": "yes", "departures_board": "no", "highway": "bus_stop", "name": "42 To Wyncote", "network": "SEPTA", "network:wikidata": "Q2037863", "operator": "Septa", "public_transport": "platform", "ref": "22139", "shelter": "no"}}, {"type": "node", "id": 8878395935, "lat": 39.9450446, "lon": -75.1484911, "tags": {"bus": "yes", "departures_board": "no", "highway": "bus_stop", "name": "57 To Whitman Plaza", "network": "SEPTA", "network:wikidata": "Q2037863", "operator": "Septa", "public_transport": "platform", "ref": "18099", "shelter": "no"}}, {"type": "node", "id": 8878395936, "lat": 39.9461385, "lon": -75.1482524, "tags": {"bus": "yes", "departures_board": "no", "highway": "bus_stop", "name": "57 To Whitman Plaza", "network": "SEPTA", "network:wikidata": "Q2037863", "operator": "Septa", "public_transport": "platform", "ref": "18098", "shelter": "no"}}, {"type": "node", "id": 8878395937, "lat": 39.9474432, "lon": -75.1479654, "tags": {"bus": "yes", "departures_board": "no", "highway": "bus_stop", "name": "57 To Whitman Plaza", "network": "SEPTA", "network:wikidata": "Q2037863", "operator": "Septa", "public_transport": "platform", "ref": "18095", "shelter": "no"}}, {"type": "node", "id": 8878395938, "lat": 39.9489458, "lon": -75.1476254, "tags": {"bus": "yes", "departures_board": "no", "highway": "bus_stop", "name": "57 to Whitman Plaza", "network": "SEPTA", "network:wikidata": "Q2037863", "operator": "Septa", "public_transport": "platform", "ref": "18094"}}, {"type": "node", "id": 8878395939, "lat": 39.9436157, "lon": -75.1488076, "tags": {"bus": "yes", "departures_board": "no", "highway": "bus_stop", "name": "57 To Whitman Plaza", "network": "SEPTA", "network:wikidata": "Q2037863", "operator": "Septa", "public_transport": "platform", "ref": "18100", "shelter": "no"}}, {"type": "node", "id": 8878395940, "lat": 39.9427433, "lon": -75.148996, "tags": {"bus": "yes", "departures_board": "no", "highway": "bus_stop", "name": "57 To Whitman Plaza", "network": "SEPTA", "network:wikidata": "Q2037863", "operator": "Septa", "public_transport": "platform", "ref": "18101", "shelter": "no"}}, {"type": "node", "id": 8878395941, "lat": 39.9417212, "lon": -75.14922, "tags": {"bench": "no", "bus": "yes", "departures_board": "no", "highway": "bus_stop", "name": "57 To Whitman Plaza", "network": "SEPTA", "network:wikidata": "Q2037863", "operator": "Septa", "public_transport": "platform", "ref": "18102", "shelter": "no"}}, {"type": "node", "id": 8878395942, "lat": 39.9408359, "lon": -75.1494205, "tags": {"bus": "yes", "departures_board": "no", "highway": "bus_stop", "name": "57 To Whitman Plaza", "network": "SEPTA", "network:wikidata": "Q2037863", "operator": "Septa", "public_transport": "platform", "ref": "18103", "shelter": "no"}}, {"type": "node", "id": 8878395943, "lat": 39.9370343, "lon": -75.1502741, "tags": {"bus": "yes", "highway": "bus_stop", "name": "57 To Whitman Plaza", "network": "SEPTA", "network:wikidata": "Q2037863", "network:wikipedia": "en:SEPTA", "operator": "Septa", "public_transport": "platform", "ref": "18115", "shelter": "no"}}, {"type": "node", "id": 8878395945, "lat": 39.9344752, "lon": -75.1508313, "tags": {"bus": "yes", "highway": "bus_stop", "name": "57 To Whitman Plaza", "network": "SEPTA", "network:wikidata": "Q2037863", "network:wikipedia": "en:SEPTA", "operator": "Septa", "public_transport": "platform", "ref": "851", "shelter": "no"}}, {"type": "node", "id": 8878395947, "lat": 39.9318505, "lon": -75.149436, "tags": {"bus": "yes", "highway": "bus_stop", "name": "57 To Whitman Plaza", "network": "SEPTA", "network:wikidata": "Q2037863", "network:wikipedia": "en:SEPTA", "operator": "Septa", "public_transport": "platform", "ref": "18120", "shelter": "no"}}, {"type": "node", "id": 8878395949, "lat": 39.9223963, "lon": -75.1531529, "tags": {"bus": "yes", "highway": "bus_stop", "name": "57 To Whitman Plaza", "network": "SEPTA", "network:wikidata": "Q2037863", "network:wikipedia": "en:SEPTA", "operator": "Septa", "public_transport": "platform", "ref": "`18128"}}, {"type": "node", "id": 8878395950, "lat": 39.9186707, "lon": -75.1543009, "tags": {"bus": "yes", "highway": "bus_stop", "name": "57 To Whitman Plaza", "public_transport": "platform", "ref": "18131"}}, {"type": "node", "id": 8878395951, "lat": 39.916163, "lon": -75.1548145, "tags": {"bus": "yes", "highway": "bus_stop", "name": "57 To Whitman Plaza", "network": "SEPTA", "network:wikidata": "Q2037863", "network:wikipedia": "en:SEPTA", "operator": "Septa", "public_transport": "platform", "ref": "18133"}}, {"type": "node", "id": 8878395952, "lat": 39.9150171, "lon": -75.1550626, "tags": {"bus": "yes", "highway": "bus_stop", "name": "57 To Whitman Plaza", "network": "SEPTA", "network:wikidata": "Q2037863", "network:wikipedia": "en:SEPTA", "operator": "Septa", "public_transport": "platform", "ref": "853"}}, {"type": "node", "id": 8878395953, "lat": 39.91321, "lon": -75.1564063, "tags": {"bus": "yes", "highway": "bus_stop", "name": "57 To Whitman Plaza", "network": "SEPTA", "network:wikidata": "Q2037863", "network:wikipedia": "en:SEPTA", "operator": "Septa", "public_transport": "platform", "ref": "99"}}, {"type": "node", "id": 8878395954, "lat": 39.9137398, "lon": -75.1556928, "tags": {"bus": "yes", "highway": "bus_stop", "name": "57 To Fern Rock Transportation Center", "network": "SEPTA", "network:wikidata": "Q2037863", "network:wikipedia": "en:SEPTA", "operator": "Septa", "public_transport": "platform", "ref": "24973", "shelter": "yes"}}, {"type": "node", "id": 9272860072, "lat": 39.9539036, "lon": -75.1749552, "tags": {"bench": "no", "bin": "no", "bus": "yes", "departures_board": "no", "highway": "bus_stop", "lit": "yes", "network": "SEPTA", "network:wikidata": "Q2037863", "network:wikipedia": "en:SEPTA", "note": "Bus routes:\n31 to 76th-City\n44 to Ardmore\n62 to Andorra\n124 to King of Prussia & Chesterbrook\n125 to King of Prussia & Valley Forge", "operator": "SEPTA", "public_transport": "platform", "ref": "10279", "shelter": "no", "tactile_paving": "no"}}, {"type": "node", "id": 9272887824, "lat": 39.9515427, "lon": -75.1561228, "tags": {"bench": "yes", "bus": "yes", "highway": "bus_stop", "network": "SEPTA", "network:wikidata": "Q2037863", "network:wikipedia": "en:SEPTA", "note": "Bus routes\n38 to Wissahickon Transportation Center\n44 to Ardmore\n62 to Andorra", "operator": "SEPTA", "public_transport": "platform", "ref": "30081", "route_ref": "38;44;62", "shelter": "yes"}}, {"type": "node", "id": 9272920063, "lat": 39.9547905, "lon": -75.1836264, "tags": {"bench": "no", "bus": "yes", "departures_board": "no", "highway": "bus_stop", "network": "SEPTA", "network:wikidata": "Q2037863", "network:wikipedia": "en:SEPTA", "note": "Bus routes\n31 to City Hall\n49 to 33rd-Dauphin\nCynwyd Line Rail Shuttle\nShared with NJ Transit stop #32607", "operator": "SEPTA", "public_transport": "platform", "ref": "18996", "route_ref": "31;49", "shelter": "no"}}, {"type": "node", "id": 9272920064, "lat": 39.9547905, "lon": -75.1836214, "tags": {"bench": "no", "bus": "yes", "departures_board": "no", "highway": "bus_stop", "network": "NJ Transit", "network:short": "NJT", "network:wikidata": "Q498553", "network:wikipedia": "en:NJ Transit", "note": "Bus routes\n414 to Moorestown\n417 to Willingboro-Mt. Holly\n555 to Avandale Park/Ride\n\"Weekday Rush Hour Service Only\"\n\nbus stop shared with SEPTA stop number #18996", "operator": "NJ Transit", "public_transport": "platform", "ref": "32607", "route_ref": "414;417;555", "shelter": "no"}}, {"type": "node", "id": 9272947726, "lat": 39.9673376, "lon": -75.1787732, "tags": {"bench": "no", "bus": "yes", "departures_board": "no", "highway": "bus_stop", "network": "SEPTA", "network:wikidata": "Q2037863", "network:wikipedia": "en:SEPTA", "note": "Bus routes\n49 to 29th-Snyder", "operator": "SEPTA", "public_transport": "platform", "ref": "32490", "route_ref": "49", "shelter": "no"}}, {"type": "node", "id": 9596039971, "lat": 39.9534984, "lon": -75.1854309, "tags": {"bus": "yes", "highway": "bus_stop", "public_transport": "platform"}}, {"type": "node", "id": 9596039972, "lat": 39.9532928, "lon": -75.1839007, "tags": {"bus": "yes", "highway": "bus_stop", "public_transport": "platform"}}, {"type": "node", "id": 9620942707, "lat": 40.0521928, "lon": -75.0679821, "tags": {"bus": "yes", "highway": "bus_stop", "public_transport": "platform"}}, {"type": "node", "id": 9620942708, "lat": 40.0531124, "lon": -75.0695799, "tags": {"bus": "yes", "highway": "bus_stop", "public_transport": "platform"}}, {"type": "node", "id": 9620942709, "lat": 40.0533044, "lon": -75.0695209, "tags": {"bus": "yes", "highway": "bus_stop", "public_transport": "platform"}}, {"type": "node", "id": 9768306180, "lat": 39.9823615, "lon": -75.1746981, "tags": {"bench": "no", "bin": "no", "bus": "yes", "departures_board": "no", "highway": "bus_stop", "lit": "no", "network": "SEPTA", "network:wikidata": "Q2037863", "operator": "SEPTA", "public_transport": "platform", "ref": "17883", "route_ref": "61", "shelter": "no", "tactile_paving": "no"}}, {"type": "node", "id": 9906978519, "lat": 39.9821305, "lon": -75.1380353, "tags": {"bus": "yes", "highway": "bus_stop", "name": "American St & Diamond St", "public_transport": "platform"}}, {"type": "node", "id": 9906978557, "lat": 39.9810235, "lon": -75.1385502, "tags": {"bus": "yes", "highway": "bus_stop", "name": "American St & Norris St", "public_transport": "platform"}}, {"type": "node", "id": 9907006898, "lat": 39.9806204, "lon": -75.1383644, "tags": {"bus": "yes", "highway": "bus_stop", "name": "American St & Norris St", "public_transport": "platform"}}, {"type": "node", "id": 9907006899, "lat": 39.9796364, "lon": -75.1388426, "tags": {"bus": "yes", "highway": "bus_stop", "name": "American St & Norris St", "public_transport": "platform"}}, {"type": "node", "id": 9907164400, "lat": 39.9790053, "lon": -75.1387045, "tags": {"bus": "yes", "highway": "bus_stop", "name": "American St & Berks St", "public_transport": "platform"}}, {"type": "node", "id": 9907164401, "lat": 39.9765424, "lon": -75.1395051, "tags": {"bus": "yes", "highway": "bus_stop", "name": "American St & Cecil B Moore Av", "public_transport": "platform"}}, {"type": "node", "id": 9907222951, "lat": 39.9857023, "lon": -75.1375137, "tags": {"bus": "yes", "highway": "bus_stop", "name": "American St & Dauphin St", "public_transport": "platform"}}, {"type": "node", "id": 9907240054, "lat": 39.9825064, "lon": -75.1382369, "tags": {"bus": "yes", "highway": "bus_stop", "name": "American St & Diamond St", "public_transport": "platform"}}, {"type": "node", "id": 9907240158, "lat": 39.9836651, "lon": -75.1377413, "tags": {"bus": "yes", "highway": "bus_stop", "name": "American St & Susquehanna Av", "public_transport": "platform"}}, {"type": "node", "id": 9907240236, "lat": 39.9841323, "lon": -75.1378478, "tags": {"bus": "yes", "highway": "bus_stop", "name": "American St & Susquehanna Av", "public_transport": "platform"}}, {"type": "node", "id": 9907240314, "lat": 39.9852507, "lon": -75.1374118, "tags": {"bus": "yes", "highway": "bus_stop", "name": "American St & Dauphin St", "public_transport": "platform"}}, {"type": "node", "id": 9907274612, "lat": 39.9868141, "lon": -75.1370569, "tags": {"bus": "yes", "highway": "bus_stop", "name": "American St & York St", "public_transport": "platform"}}, {"type": "node", "id": 9907364066, "lat": 39.9872088, "lon": -75.1371974, "tags": {"bus": "yes", "highway": "bus_stop", "name": "American St & York St", "public_transport": "platform"}}, {"type": "node", "id": 9907364077, "lat": 39.9883057, "lon": -75.1367188, "tags": {"bus": "yes", "highway": "bus_stop", "name": "American St & Cumberland St", "public_transport": "platform"}}, {"type": "node", "id": 9907364119, "lat": 39.9886454, "lon": -75.1369238, "tags": {"bus": "yes", "highway": "bus_stop", "name": "American St & Cumberland St", "public_transport": "platform"}}, {"type": "node", "id": 9907364137, "lat": 39.9898498, "lon": -75.1363911, "tags": {"bus": "yes", "highway": "bus_stop", "name": "American St & Huntingdon St", "public_transport": "platform"}}, {"type": "node", "id": 9907364168, "lat": 39.9901397, "lon": -75.1366098, "tags": {"bus": "yes", "highway": "bus_stop", "name": "American St & Huntingdon St", "public_transport": "platform"}}, {"type": "node", "id": 9907364169, "lat": 39.9912845, "lon": -75.1360853, "tags": {"bus": "yes", "highway": "bus_stop", "name": "American St & Lehigh Av - FS", "public_transport": "platform"}}, {"type": "node", "id": 9907554770, "lat": 39.9750591, "lon": -75.1398353, "tags": {"bus": "yes", "highway": "bus_stop", "name": "American St & Oxford Av", "public_transport": "platform"}}, {"type": "node", "id": 9907554771, "lat": 39.9761095, "lon": -75.1393639, "tags": {"bus": "yes", "highway": "bus_stop", "name": "American St & Cecil B Moore Av", "public_transport": "platform"}}, {"type": "node", "id": 10046242856, "lat": 39.9560952, "lon": -75.1760765, "tags": {"bus": "yes", "departures_board": "timetable", "description": "The 48 bus stops here.", "highway": "bus_stop", "name": "Arch St & 22nd St Bus Stop", "network": "SETPA", "not:network:wikidata": "Q2037863", "operator": "SEPTA", "public_transport": "platform", "shelter": "no"}}, {"type": "node", "id": 10124791417, "lat": 39.978746, "lon": -75.133726, "tags": {"bus": "yes", "highway": "bus_stop", "public_transport": "platform"}}, {"type": "node", "id": 10124791418, "lat": 39.9786345, "lon": -75.1338615, "tags": {"bus": "yes", "highway": "bus_stop", "public_transport": "platform"}}, {"type": "node", "id": 10125220959, "lat": 39.9715735, "lon": -75.1344856, "tags": {"bus": "yes", "highway": "bus_stop", "public_transport": "platform"}}, {"type": "node", "id": 10125220963, "lat": 39.9702902, "lon": -75.1345048, "tags": {"bus": "yes", "highway": "bus_stop", "public_transport": "platform"}}, {"type": "node", "id": 10125220964, "lat": 39.9698344, "lon": -75.1343739, "tags": {"bus": "yes", "highway": "bus_stop", "public_transport": "platform"}}, {"type": "node", "id": 10204743538, "lat": 39.9803188, "lon": -75.1821514, "tags": {"bench": "no", "bin": "no", "highway": "bus_stop", "lit": "no", "ref": "2900", "shelter": "no", "tactile_paving": "no"}}, {"type": "node", "id": 10204743539, "lat": 39.9804433, "lon": -75.1822741, "tags": {"bench": "yes", "bin": "no", "highway": "bus_stop", "lit": "yes", "ref": "2901", "shelter": "yes", "tactile_paving": "no"}}, {"type": "node", "id": 10978033937, "lat": 39.9648253, "lon": -75.1641883, "tags": {"bench": "no", "covered": "no", "highway": "bus_stop", "network": "SEPTA", "network:wikidata": "Q2037863", "ref": "3035"}}, {"type": "node", "id": 10983283171, "lat": 39.963488, "lon": -75.1973303, "tags": {"highway": "bus_stop", "network": "SEPTA", "network:wikidata": "Q2037863", "ref": "22091"}}]}