{"version": 0.6, "generator": "Overpass API 0.7.61.5 4133829e", "osm3s": {"timestamp_osm_base": "2023-09-28T20:00:57Z", "copyright": "The data included in this document is from www.openstreetmap.org. The data is made available under ODbL."}, "elements": [{"type": "node", "id": 357303425, "lat": 39.9606683, "lon": -75.1471214, "tags": {"addr:city": "Philadelphia", "addr:housenumber": "500", "addr:postcode": "19123", "addr:state": "PA", "addr:street": "Spring Garden Street", "amenity": "bar", "brewery": "yes", "craft": "brewery", "gnis:county_id": "101", "microbrewery": "yes", "name": "Yards Brewing Company", "operator": "Yards Brewing Company", "restaurant": "yes", "website": "https://yardsbrewing.com/", "wikidata": "Q16903914", "wikipedia": "en:Yards Brewing Company"}}, {"type": "node", "id": 655425272, "lat": 39.9552143, "lon": -75.2002039, "tags": {"amenity": "bar", "name": "Drinkers West"}}, {"type": "node", "id": 1033935437, "lat": 39.9524202, "lon": -75.1755247, "tags": {"addr:housenumber": "2101", "addr:street": "Chestnut Street", "amenity": "bar", "contact:phone": "+1 215-568-3355", "contact:website": "https://mixbarandgrillphilly.com/location/mix-bar-grill", "description": "The bar is open until whenever the rush ends.", "name": "Mix Bar & Grill", "opening_hours": "Mo-We,Su 11:00-22:00; Th-Sa 11:00-23:00", "outdoor_seating": "yes"}}, {"type": "node", "id": 1167079387, "lat": 39.9417025, "lon": -75.1492453, "tags": {"addr:housenumber": "401", "addr:street": "South Street", "amenity": "bar", "check_date": "2023-04-12", "contact:facebook": "https://www.facebook.com/milkboysouthstreet", "contact:phone": "+1 215-925-6455", "contact:website": "https://www.milkboy.tv/southstreet", "name": "MilkBoy South Street", "opening_hours": "Mo-Tu,Su 11:00-24:00; We-Sa 11:00-25:00"}}, {"type": "node", "id": 1204761128, "lat": 39.9268474, "lon": -75.1636296, "tags": {"amenity": "bar", "name": "Vikings High School Club"}}, {"type": "node", "id": 1424271155, "lat": 39.9415203, "lon": -75.1490932, "tags": {"addr:housenumber": "344", "addr:postcode": "19147", "addr:street": "South Street", "amenity": "bar", "name": "Copabanana", "opening_hours": "Mo-Su 11:30-02:00", "phone": "+1 215 9236180", "website": "http://copabanana.com/"}}, {"type": "node", "id": 1475230378, "lat": 39.9662701, "lon": -75.1400237, "tags": {"addr:city": "Philadelphia", "addr:housenumber": "1001", "addr:postcode": "19123", "addr:street": "North 2nd Street", "amenity": "bar", "name": "Gunner's Run", "opening_hours": "Mo-Su 11:00-02:00", "phone": "215-923-4600", "website": "http://gunnersrun.com/"}}, {"type": "node", "id": 1475234787, "lat": 39.9368559, "lon": -75.1548054, "tags": {"amenity": "bar", "name": "Royal Tavern"}}, {"type": "node", "id": 1475234971, "lat": 39.9368866, "lon": -75.154784, "tags": {"addr:city": "Philadelphia", "addr:housenumber": "947", "addr:postcode": "19147", "addr:street": "East Passyunk Avenue", "air_conditioning": "yes", "amenity": "bar", "name": "The Dive Bar", "opening_hours": "17:00-02:00", "phone": "+1 215 465 5505", "smoking": "isolated"}}, {"type": "node", "id": 1518109393, "lat": 39.9529963, "lon": -75.1592391, "tags": {"amenity": "bar", "name": "Fieldhouse Philadelphia", "toilets:wheelchair": "yes", "wheelchair": "yes"}}, {"type": "node", "id": 1696268602, "lat": 40.0245358, "lon": -75.2211217, "tags": {"amenity": "bar", "check_date": "2023-07-28", "check_date:opening_hours": "2023-09-26", "name": "Bayou Bar and Grill", "opening_hours:signed": "no"}}, {"type": "node", "id": 1700198702, "lat": 39.9537387, "lon": -75.2028345, "tags": {"addr:city": "Philadelphia", "amenity": "bar", "name": "Smokey Joe's"}}, {"type": "node", "id": 1712057956, "lat": 39.9620487, "lon": -75.1413583, "tags": {"addr:city": "Philadelphia", "addr:housenumber": "700", "addr:postcode": "19123", "addr:street": "North 2nd Street", "amenity": "bar", "name": "The 700", "phone": "+1 215 413 3181", "website": "http://www.the700.org/"}}, {"type": "node", "id": 1712067122, "lat": 39.9698591, "lon": -75.1435298, "tags": {"addr:housenumber": "412", "addr:postcode": "19123", "addr:street": "West Girard Ave", "amenity": "bar", "name": "The Fire"}}, {"type": "node", "id": 1712077076, "lat": 40.0057179, "lon": -75.1074442, "tags": {"amenity": "bar"}}, {"type": "node", "id": 1718667835, "lat": 40.068083, "lon": -75.0687339, "tags": {"amenity": "bar", "name": "Red Rooster"}}, {"type": "node", "id": 1749989684, "lat": 39.9279585, "lon": -75.1620353, "tags": {"amenity": "bar", "name": "Watkins Drinkery"}}, {"type": "node", "id": 1980171513, "lat": 39.9417727, "lon": -75.1794507, "tags": {"amenity": "bar", "indoor_seating": "yes", "name": "SideCar Bar", "opening_hours": "Th-Tu 16:00-23:00", "outdoor_seating": "yes", "website": "http://www.thesidecarbar.com/"}}, {"type": "node", "id": 2002997662, "lat": 39.9671344, "lon": -75.1729136, "tags": {"addr:housenumber": "2120", "addr:postcode": "19130", "addr:street": "Farimount Avenue", "amenity": "bar", "designation": "Anna McPeak", "name": "Urban Saloon", "phone": "+1-215-232-5359", "website": "urbansaloon.com"}}, {"type": "node", "id": 2003090914, "lat": 40.0091806, "lon": -75.1564062, "tags": {"amenity": "bar", "name": "B Bar"}}, {"type": "node", "id": 2040476346, "lat": 39.9887382, "lon": -75.0998546, "tags": {"addr:housename": "Cathys crossing", "addr:housenumber": "2537", "addr:postcode": "19134", "addr:street": "East ontario street", "amenity": "bar", "designation": "Cathy's Crossing Bar&Grill", "name": "Cathy's Crossing Bar&Grill", "source": "local citizen", "website": "https://myspace.com/446636591", "wifi": "no"}}, {"type": "node", "id": 2114079133, "lat": 39.9484621, "lon": -75.2172652, "tags": {"amenity": "bar", "name": "Abby's Desert Lounge"}}, {"type": "node", "id": 2177564503, "lat": 39.9483487, "lon": -75.221363, "tags": {"amenity": "bar", "name": "The Bar(n)"}}, {"type": "node", "id": 2182345789, "lat": 39.9570682, "lon": -75.2024993, "tags": {"amenity": "bar", "name": "Flynn's Bar"}}, {"type": "node", "id": 2256040057, "lat": 39.9506774, "lon": -75.1632811, "tags": {"amenity": "bar", "leisure": "bowling_alley", "name": "Lucky Strike", "sport": "10pin"}}, {"type": "node", "id": 2419063592, "lat": 39.9477622, "lon": -75.2228257, "tags": {"addr:city": "Philadelphia", "addr:housenumber": "701", "addr:postcode": "19143", "addr:street": "South 50th Street", "amenity": "bar", "cuisine": "pizza", "diet:vegan": "yes", "diet:vegetarian": "yes", "food": "pizza", "name": "Dock Street Brewing Company", "outdoor_seating": "yes", "website": "http://www.dockstreetbeer.com/"}}, {"type": "node", "id": 2538795585, "lat": 39.9506995, "lon": -75.1743526, "tags": {"addr:city": "Philadelphia", "addr:housename": "The Bard's", "addr:housenumber": "2013", "addr:postcode": "19103", "addr:street": "Walnut Street", "amenity": "bar", "name": "The Bard's"}}, {"type": "node", "id": 2613465619, "lat": 39.9628076, "lon": -75.1399534, "tags": {"addr:city": "Philadelphia", "addr:housenumber": "149", "addr:postcode": "19123", "addr:street": "Brown Street", "amenity": "bar", "name": "The Druid's Keep", "phone": "215-413-0455"}}, {"type": "node", "id": 2613831462, "lat": 39.9620596, "lon": -75.1409421, "tags": {"addr:city": "Philadelphia", "addr:housenumber": "705", "addr:postcode": "19123", "addr:street": "North 2nd Street", "amenity": "bar", "name": "Bourbon & Branch", "opening_hours": "Sa-Su 10:00-02:00; Mo-Fr 11:00-02:00", "phone": "215-238-0660", "website": "https://bourbonandbranchphilly.com/"}}, {"type": "node", "id": 2613854617, "lat": 39.9610231, "lon": -75.1432118, "tags": {"addr:city": "Philadelphia", "addr:housenumber": "537", "addr:postcode": "19123", "addr:street": "North 3rd Street", "amenity": "bar", "name": "Finnigan's Wake", "phone": "215-574-9317", "website": "http://www.finnigans.com/", "wheelchair": "yes"}}, {"type": "node", "id": 2699327332, "lat": 39.9277491, "lon": -75.177025, "tags": {"addr:city": "Philadelphia", "addr:housenumber": "1901", "addr:postcode": "19145", "addr:street": "South 19th Street", "amenity": "bar", "food": "yes", "internet_access": "no", "name": "Sit on It Bar", "opening_hours": "11:00 - 02:00", "phone": "+1 215 551 9389"}}, {"type": "node", "id": 2699346739, "lat": 39.9644678, "lon": -75.1403339, "tags": {"addr:city": "Philadelphia", "addr:housenumber": "909", "addr:postcode": "19123", "addr:street": "North 2nd Street", "amenity": "bar", "leisure": "bowling_alley", "name": "North Bowl", "phone": "(215) 238-2695", "sport": "10pin", "website": "www.northbowlphilly.com"}}, {"type": "node", "id": 2701472360, "lat": 39.9439702, "lon": -75.1674777, "tags": {"addr:city": "Philadelphia", "addr:housenumber": "1509", "addr:postcode": "19146", "addr:street": "South Street", "amenity": "bar", "name": "Bob and Barbara's", "website": "https://www.bobandbarbaras.com/", "wheelchair": "yes"}}, {"type": "node", "id": 2749790457, "lat": 39.9273779, "lon": -75.1715183}, {"type": "node", "id": 2749790461, "lat": 39.9273651, "lon": -75.1714109}, {"type": "node", "id": 2749790464, "lat": 39.9271826, "lon": -75.1714479}, {"type": "node", "id": 2749790466, "lat": 39.9271989, "lon": -75.1715682}, {"type": "node", "id": 2758582547, "lat": 39.921567, "lon": -75.1785816}, {"type": "node", "id": 2758582549, "lat": 39.9216107, "lon": -75.1785723}, {"type": "node", "id": 2758582551, "lat": 39.9216344, "lon": -75.1787593}, {"type": "node", "id": 2758582553, "lat": 39.921592, "lon": -75.1787692}, {"type": "node", "id": 2822025477, "lat": 39.9488398, "lon": -75.1622899, "tags": {"addr:city": "Philadelphia", "addr:housenumber": "202", "addr:postcode": "19107", "addr:street": "South 13th Street", "amenity": "bar", "name": "Woody's Bar"}}, {"type": "node", "id": 2822026031, "lat": 39.9358102, "lon": -75.1619902, "tags": {"amenity": "bar", "name": "Devil's Den"}}, {"type": "node", "id": 2876251699, "lat": 39.9390528, "lon": -75.1576839, "tags": {"addr:city": "Philadelphia", "addr:housenumber": "831", "addr:postcode": "19147", "addr:street": "Christian Street", "amenity": "bar", "name": "12 Steps Down", "opening_hours": "11:00-02:00", "phone": "+1 215 238 0379", "smoking": "yes", "website": "http://www.12stepsdown.com"}}, {"type": "node", "id": 2931994044, "lat": 39.9359904, "lon": -75.1722146, "tags": {"addr:city": "Philadelphia", "addr:housenumber": "1216", "addr:postcode": "19146", "addr:street": "South 17th Street", "amenity": "bar", "name": "Se\u00f1or Baynard's Bar & Grill", "phone": "+1 215 462 1888", "smoking": "yes"}}, {"type": "node", "id": 2960031733, "lat": 39.877599, "lon": -75.239728, "tags": {"amenity": "bar", "brand": "Vino Volo", "brand:wikidata": "Q7932710", "indoor_seating": "yes", "name": "Vino Volo", "outdoor_seating": "no"}}, {"type": "node", "id": 3042654511, "lat": 39.9495502, "lon": -75.1459458, "tags": {"addr:city": "Philadelphia", "addr:housenumber": "22", "addr:postcode": "19106", "addr:street": "South 3rd Street", "amenity": "bar", "name": "National Mechanics", "phone": "+1 215 701 4883", "smoking": "outside", "website": "https://www.nationalmechanics.com/", "wheelchair": "no", "wheelchair:description": "Their website says ramp at side wheelchair accessible but it's difficult to get attention of any staff from outside and there is trash/rubble on a very steep ramp."}}, {"type": "node", "id": 3094702133, "lat": 39.9506651, "lon": -75.1740181, "tags": {"amenity": "bar", "name": "Tria Taproom"}}, {"type": "node", "id": 3413417149, "lat": 39.9488304, "lon": -75.1664238}, {"type": "node", "id": 3413742082, "lat": 39.9363945, "lon": -75.1624802}, {"type": "node", "id": 3413742083, "lat": 39.9363143, "lon": -75.1618672}, {"type": "node", "id": 3413742084, "lat": 39.9361485, "lon": -75.161904}, {"type": "node", "id": 3413742085, "lat": 39.9362287, "lon": -75.162517}, {"type": "node", "id": 3417195707, "lat": 39.94853, "lon": -75.1664874}, {"type": "node", "id": 3417195708, "lat": 39.948557, "lon": -75.1667048}, {"type": "node", "id": 3420122220, "lat": 39.9333309, "lon": -75.1586036}, {"type": "node", "id": 3420122221, "lat": 39.9333794, "lon": -75.1589908}, {"type": "node", "id": 3420122222, "lat": 39.9334884, "lon": -75.1589398}, {"type": "node", "id": 3420122223, "lat": 39.9333979, "lon": -75.1585857}, {"type": "node", "id": 3420122224, "lat": 39.9335491, "lon": -75.1588647}, {"type": "node", "id": 3420122225, "lat": 39.9334512, "lon": -75.1585694}, {"type": "node", "id": 3460931547, "lat": 39.9412945, "lon": -75.1524196}, {"type": "node", "id": 3470849327, "lat": 39.9484891, "lon": -75.1441761, "tags": {"addr:city": "Philadelphia", "addr:housenumber": "201", "addr:postcode": "19106", "addr:street": "Chestnut Street", "amenity": "bar", "name": "Rotten Ralph's"}}, {"type": "node", "id": 3496961798, "lat": 39.9295012, "lon": -75.1614403, "tags": {"amenity": "bar", "name": "The Fountain Porter"}}, {"type": "node", "id": 3517411364, "lat": 39.936174, "lon": -75.1587438}, {"type": "node", "id": 3517411365, "lat": 39.9362904, "lon": -75.158697}, {"type": "node", "id": 3517411366, "lat": 39.9362518, "lon": -75.1585547}, {"type": "node", "id": 3517411367, "lat": 39.9362381, "lon": -75.158545}, {"type": "node", "id": 3517411368, "lat": 39.9361698, "lon": -75.1585563}, {"type": "node", "id": 3517411369, "lat": 39.9361909, "lon": -75.1586923}, {"type": "node", "id": 3517411370, "lat": 39.936166, "lon": -75.1587004}, {"type": "node", "id": 3527163511, "lat": 39.9506137, "lon": -75.1627406, "tags": {"addr:city": "Philadelphia", "addr:housenumber": "1324", "addr:street": "Chestnut Street", "amenity": "bar", "name": "Tradesman's"}}, {"type": "node", "id": 3527163512, "lat": 39.9505942, "lon": -75.1625219, "tags": {"addr:city": "Philadelphia", "addr:housenumber": "1318", "addr:street": "Chestnut Street", "amenity": "bar", "name": "Br\u00fc Craft & Wurst"}}, {"type": "node", "id": 3531082350, "lat": 39.9488574, "lon": -75.1666412}, {"type": "node", "id": 3531082351, "lat": 39.9487981, "lon": -75.1666538}, {"type": "node", "id": 3567104221, "lat": 39.9520229, "lon": -75.1785874}, {"type": "node", "id": 3567104222, "lat": 39.9519678, "lon": -75.1786006}, {"type": "node", "id": 3567104223, "lat": 39.951942, "lon": -75.1784024}, {"type": "node", "id": 3567104224, "lat": 39.9519976, "lon": -75.1783911}, {"type": "node", "id": 3572807729, "lat": 39.9497479, "lon": -75.1436572, "tags": {"addr:city": "Philadelphia", "addr:housenumber": "138", "addr:postcode": "19106", "addr:street": "Market Street", "amenity": "bar", "name": "Continental Restaurant & Martini Bar", "phone": "215 923 6069"}}, {"type": "node", "id": 3631850491, "lat": 39.9705096, "lon": -75.1343091, "tags": {"addr:city": "Philadelphia", "addr:housenumber": "1301", "addr:postcode": "19125", "addr:state": "PA", "addr:street": "Frankford Avenue", "amenity": "bar", "name": "Fishtown Tavern", "opening_hours": "12:00-02:00", "smoking": "outside"}}, {"type": "node", "id": 3753508296, "lat": 39.8754946, "lon": -75.2381694, "tags": {"amenity": "bar", "name": "Jet Rock Bar & Grill"}}, {"type": "node", "id": 3773468429, "lat": 39.9670594, "lon": -75.1655238}, {"type": "node", "id": 3773468430, "lat": 39.9670594, "lon": -75.1654621}, {"type": "node", "id": 3773468431, "lat": 39.9668169, "lon": -75.1655077}, {"type": "node", "id": 3773468432, "lat": 39.966821, "lon": -75.1655667}, {"type": "node", "id": 3885206651, "lat": 39.9334997, "lon": -75.1588344, "tags": {"addr:city": "Philadelphia", "addr:housenumber": "1231-1233", "addr:postcode": "19147", "addr:state": "PA", "addr:street": "East Passyunk Avenue", "amenity": "bar", "contact:facebook": "garagephilly", "name": "The Garage", "opening_hours": "Mo-Fr 17:00-02:00; Sa,Su 12:00-02:00", "phone": "(215) 278-2429", "smoking": "outside", "website": "https://www.garagephilly.com/"}}, {"type": "node", "id": 3892460932, "lat": 39.950609, "lon": -75.1625931, "tags": {"amenity": "bar", "name": "U-Bahn"}}, {"type": "node", "id": 3944585958, "lat": 39.9115895, "lon": -75.1747709, "tags": {"amenity": "bar", "cuisine": "american", "name": "Chickie's and Pete's Crabhouse and Sports Bar"}}, {"type": "node", "id": 3944590539, "lat": 39.9125123, "lon": -75.1763937, "tags": {"amenity": "bar", "name": "Philadium Tavern"}}, {"type": "node", "id": 4043212394, "lat": 39.9717262, "lon": -75.1354575}, {"type": "node", "id": 4043212395, "lat": 39.9717508, "lon": -75.1355996}, {"type": "node", "id": 4043212396, "lat": 39.971794, "lon": -75.1355876}, {"type": "node", "id": 4043212397, "lat": 39.9717991, "lon": -75.1356211}, {"type": "node", "id": 4043212398, "lat": 39.9718495, "lon": -75.135605}, {"type": "node", "id": 4043212399, "lat": 39.9718187, "lon": -75.1354266}, {"type": "node", "id": 4175104198, "lat": 39.9284829, "lon": -75.1651095, "tags": {"addr:housenumber": "1200", "addr:street": "East Passyunk Avenue", "amenity": "bar"}}, {"type": "node", "id": 4175142992, "lat": 39.9506905, "lon": -75.166966, "tags": {"addr:housenumber": "1524", "addr:street": "Sansom Street", "amenity": "bar", "name": "Oscar's Dive Bar"}}, {"type": "node", "id": 4175144191, "lat": 39.9454134, "lon": -75.1627756, "tags": {"addr:street": "Pine Street", "amenity": "bar", "name": "Dirty Franks"}}, {"type": "node", "id": 4267167928, "lat": 39.9341118, "lon": -75.1584926, "tags": {"amenity": "bar", "fixme": "\"2am close\" -- need opening times as well in opening_hours for the tag to be useful.", "name": "Ray's Happy Birthday Bar", "opening_hours": "unknown", "smoking": "yes"}}, {"type": "node", "id": 4279223855, "lat": 39.9298567, "lon": -75.1597782}, {"type": "node", "id": 4279223856, "lat": 39.9299002, "lon": -75.1597667}, {"type": "node", "id": 4279223857, "lat": 39.929867, "lon": -75.1595135}, {"type": "node", "id": 4279223858, "lat": 39.9298241, "lon": -75.159523}, {"type": "node", "id": 4366251786, "lat": 39.9272809, "lon": -75.171538}, {"type": "node", "id": 4366251787, "lat": 39.9272823, "lon": -75.1715488}, {"type": "node", "id": 4366346429, "lat": 39.932358, "lon": -75.1610134}, {"type": "node", "id": 4366346430, "lat": 39.9322459, "lon": -75.1610348}, {"type": "node", "id": 4366346431, "lat": 39.9322305, "lon": -75.1610637}, {"type": "node", "id": 4366346432, "lat": 39.9323606, "lon": -75.1612508}, {"type": "node", "id": 4366346433, "lat": 39.9323832, "lon": -75.1612407}, {"type": "node", "id": 4366346434, "lat": 39.9323631, "lon": -75.1610892}, {"type": "node", "id": 4366346435, "lat": 39.9323693, "lon": -75.1610872}, {"type": "node", "id": 4366622414, "lat": 39.931307, "lon": -75.165905}, {"type": "node", "id": 4366622415, "lat": 39.9312643, "lon": -75.1655791}, {"type": "node", "id": 4366622416, "lat": 39.9312241, "lon": -75.165588}, {"type": "node", "id": 4366622417, "lat": 39.9312667, "lon": -75.1659139}, {"type": "node", "id": 4366622418, "lat": 39.9307949, "lon": -75.1622071}, {"type": "node", "id": 4366622419, "lat": 39.9308581, "lon": -75.1621412}, {"type": "node", "id": 4366622420, "lat": 39.9308659, "lon": -75.1621107}, {"type": "node", "id": 4366622421, "lat": 39.9308376, "lon": -75.1618944}, {"type": "node", "id": 4366622422, "lat": 39.9307511, "lon": -75.1619139}, {"type": "node", "id": 4366622423, "lat": 39.9307752, "lon": -75.1620862}, {"type": "node", "id": 4366622424, "lat": 39.9307658, "lon": -75.1620885}, {"type": "node", "id": 4366622425, "lat": 39.9307794, "lon": -75.1621859}, {"type": "node", "id": 4366622442, "lat": 39.9307725, "lon": -75.1621269}, {"type": "node", "id": 4379394799, "lat": 39.9308512, "lon": -75.171807, "tags": {"amenity": "bar", "name": "Emily's"}}, {"type": "node", "id": 4533973396, "lat": 39.931237, "lon": -75.1656861}, {"type": "node", "id": 4545484121, "lat": 39.9215905, "lon": -75.178759}, {"type": "node", "id": 4668627526, "lat": 39.9334165, "lon": -75.1589026, "tags": {"amenity": "bar", "name": "South Philly Bar and Grill"}}, {"type": "node", "id": 4779956683, "lat": 39.9481789, "lon": -75.1430737, "tags": {"addr:city": "Philadelphia", "addr:housenumber": "112", "addr:postcode": "19106", "addr:state": "PA", "addr:street": "Chestnut Street", "amenity": "bar", "description": "On second floor of building.  Holds dance classes some nights, and functions as a nightclub on weekends.", "name": "Brasil's Nightclub", "outdoor_seating": "no", "smoking": "no"}}, {"type": "node", "id": 4803936642, "lat": 39.9298992, "lon": -75.1597625}, {"type": "node", "id": 4803936643, "lat": 39.9298725, "lon": -75.1595518}, {"type": "node", "id": 4806012531, "lat": 39.9333396, "lon": -75.158708}, {"type": "node", "id": 4806012532, "lat": 39.9334424, "lon": -75.1585419}, {"type": "node", "id": 4806012533, "lat": 39.933392, "lon": -75.1585609}, {"type": "node", "id": 4949327723, "lat": 39.9476934, "lon": -75.1680792, "tags": {"addr:housenumber": "264", "addr:postcode": "19102", "addr:street": "South 16th Street", "amenity": "bar", "name": "Monk's Cafe", "name:en": "Monk's Cafe", "name:es": "Monk's Cafe", "opening_hours": "Mo-Su 11:30-02:00", "phone": "+1-215-545-7005", "website": "https://monkscafe.com/"}}, {"type": "node", "id": 5071801195, "lat": 39.9800234, "lon": -75.1236506, "tags": {"addr:city": "Philadelphia", "addr:housenumber": "2331", "addr:postcode": "19125", "addr:state": "PA", "addr:street": "East Cumberland Street", "amenity": "bar", "name": "Meetinghouse", "outdoor_seating": "yes"}}, {"type": "node", "id": 5172104654, "lat": 39.9530458, "lon": -75.1702822, "tags": {"amenity": "bar", "name": "Art Bar"}}, {"type": "node", "id": 5258029217, "lat": 39.9660968, "lon": -75.1393076, "tags": {"addr:city": "Philadelphia", "addr:housenumber": "1050", "addr:postcode": "19123", "addr:state": "PA", "addr:street": "North Hancock Street", "addr:unit": "#1", "amenity": "bar", "name": "Crabby Cafe & Sports Bar", "opening_hours": "Su-Th 11:00-02:00; Fr-Sa 11:00-00:00", "outdoor_seating": "yes"}}, {"type": "node", "id": 5286851195, "lat": 40.1042675, "lon": -75.0006009}, {"type": "node", "id": 5286851196, "lat": 40.1043295, "lon": -75.0006783}, {"type": "node", "id": 5286851197, "lat": 40.1044311, "lon": -75.0005332}, {"type": "node", "id": 5286851198, "lat": 40.1043716, "lon": -75.0004523}, {"type": "node", "id": 5286851199, "lat": 40.1045336, "lon": -75.0003868}, {"type": "node", "id": 5286851200, "lat": 40.104471, "lon": -75.0003103}, {"type": "node", "id": 5366495321, "lat": 39.9480826, "lon": -75.1592322, "tags": {"addr:housenumber": "216", "addr:street": "South 11th Street", "amenity": "bar", "check_date": "2023-04-12", "contact:facebook": "https://www.facebook.com/Strangelovesbeerbar", "contact:phone": "+1 215-873-0404", "contact:website": "https://www.strangelovesbeerbar.com", "name": "Strangelove's", "opening_hours": "Mo-We 11:00-22:00; Th-Fr 11:00-24:00; Sa 10:30-23:00; Su 10:30-20:00"}}, {"type": "node", "id": 5398732058, "lat": 39.9613958, "lon": -75.1540189, "tags": {"addr:city": "Philadelphia", "addr:housenumber": "990", "addr:postcode": "19123", "addr:state": "PA", "addr:street": "Spring Garden Street", "addr:unit": "1st Floor", "amenity": "bar", "brewery": "yes", "microbrewery": "yes", "name": "Liquid Art Barrel House", "opening_hours": "Th-Fr 12:00-22:00, Sa 13:00-22:00, Su 13:00-20:00", "operator": "Liquid Art Brewing Company", "outdoor_seating": "no", "smoking": "outside"}}, {"type": "node", "id": 5413260221, "lat": 39.9412051, "lon": -75.1524413}, {"type": "node", "id": 5470214362, "lat": 40.0770458, "lon": -75.0842034}, {"type": "node", "id": 5470214363, "lat": 40.0770649, "lon": -75.0841959}, {"type": "node", "id": 5470214364, "lat": 40.0771278, "lon": -75.0841279}, {"type": "node", "id": 5470214365, "lat": 40.077112, "lon": -75.0840585}, {"type": "node", "id": 5470214366, "lat": 40.0771438, "lon": -75.0840461}, {"type": "node", "id": 5470214367, "lat": 40.0771143, "lon": -75.0839165}, {"type": "node", "id": 5470214368, "lat": 40.0769914, "lon": -75.0839643}, {"type": "node", "id": 5509435682, "lat": 40.0582228, "lon": -75.0869543, "tags": {"amenity": "bar", "name": "The New Princeton Tavern"}}, {"type": "node", "id": 5589337625, "lat": 39.9716035, "lon": -75.1273292}, {"type": "node", "id": 5589337626, "lat": 39.9715825, "lon": -75.1273884}, {"type": "node", "id": 5589337627, "lat": 39.9715435, "lon": -75.1273649}, {"type": "node", "id": 5589337628, "lat": 39.9715251, "lon": -75.1274168}, {"type": "node", "id": 5589337629, "lat": 39.971445, "lon": -75.1273685}, {"type": "node", "id": 5589337630, "lat": 39.9714844, "lon": -75.1272573}, {"type": "node", "id": 5649173009, "lat": 40.057879, "lon": -75.0779838, "tags": {"amenity": "bar", "name": "Smegy's Pub"}}, {"type": "node", "id": 5714395576, "lat": 39.9985307, "lon": -75.140929, "tags": {"addr:city": "Philadelphia", "addr:housenumber": "3100", "addr:postcode": "19133", "addr:state": "PA", "addr:street": "North 6th Street", "amenity": "bar", "name": "Xanadu"}}, {"type": "node", "id": 5715419415, "lat": 39.9949761, "lon": -75.1387068, "tags": {"addr:city": "Philadelphia", "addr:housenumber": "2870", "addr:postcode": "19133", "addr:state": "PA", "addr:street": "North Lawrence Street", "amenity": "bar", "name": "Arecibo Lounge"}}, {"type": "node", "id": 5716245442, "lat": 39.9962005, "lon": -75.1362293, "tags": {"addr:city": "Philadelphia", "addr:housenumber": "2965", "addr:postcode": "19133", "addr:state": "PA", "addr:street": "North 3rd Street", "amenity": "bar", "name": "Camuy's Bar"}}, {"type": "node", "id": 5716279473, "lat": 39.992925, "lon": -75.1346704, "tags": {"addr:city": "Philadelphia", "addr:housenumber": "2762", "addr:postcode": "19133", "addr:state": "PA", "addr:street": "North 2nd Street", "amenity": "bar", "name": "Marv Love's Too"}}, {"type": "node", "id": 5718812911, "lat": 39.9923621, "lon": -75.1304658, "tags": {"addr:city": "Philadelphia", "addr:housenumber": "2755", "addr:postcode": "19133", "addr:state": "PA", "addr:street": "North Front Street", "amenity": "bar", "name": "La Familia"}}, {"type": "node", "id": 5718820401, "lat": 39.9953888, "lon": -75.1298448}, {"type": "node", "id": 5718906468, "lat": 39.9975716, "lon": -75.1296283, "tags": {"addr:city": "Philadelphia", "addr:housenumber": "3124", "addr:postcode": "19133", "addr:state": "PA", "addr:street": "North Front Street", "amenity": "bar", "name": "Mostaza Sports Bar & Grill"}}, {"type": "node", "id": 5721511130, "lat": 39.9943873, "lon": -75.121033}, {"type": "node", "id": 5861898622, "lat": 39.9463276, "lon": -75.1635376, "tags": {"addr:housenumber": "1342", "addr:street": "Cypress Street", "amenity": "bar", "name": "Writer's Block Rehab"}}, {"type": "node", "id": 5930024328, "lat": 40.0726186, "lon": -75.0767577}, {"type": "node", "id": 5930024329, "lat": 40.0724728, "lon": -75.0765171}, {"type": "node", "id": 5930024330, "lat": 40.0725175, "lon": -75.0764708}, {"type": "node", "id": 5930024331, "lat": 40.0726633, "lon": -75.0767114}, {"type": "node", "id": 5967871734, "lat": 39.873825, "lon": -75.2438679, "tags": {"amenity": "bar", "name": "Baba Bar"}}, {"type": "node", "id": 6222237222, "lat": 39.9477524, "lon": -75.1615347, "tags": {"addr:city": "Philadelphia", "addr:housenumber": "1220", "addr:postcode": "19107", "addr:state": "PA", "addr:street": "Locust Street", "amenity": "bar", "check_date:opening_hours": "2021-04-02", "name": "Ubar", "opening_hours": "Mo-Su 11:00-02:00", "outdoor_seating": "no", "website": "https://www.ubarphilly.com/", "wheelchair": "no"}}, {"type": "node", "id": 6327451791, "lat": 39.9513876, "lon": -75.1705328, "tags": {"addr:housenumber": "108", "addr:street": "South 18th Street", "amenity": "bar", "check_date": "2023-04-11", "contact:facebook": "https://www.facebook.com/cleaversphilly", "contact:phone": "+1 215-515-3828", "contact:website": "https://www.cleaversphilly.com", "name": "Cleavers", "opening_hours": "Mo-We,Su 11:00-21:00; Th-Sa 11:00-22:00"}}, {"type": "node", "id": 6556392900, "lat": 39.9538831, "lon": -75.1574417, "tags": {"addr:housenumber": "1025", "addr:street": "Arch Street", "amenity": "bar", "check_date": "2023-04-12", "contact:phone": "+1 215-592-8128", "contact:website": "https://lairktv.com", "description": "Karaoke bar with luxury private rooms for rent.  The lower level is open Friday and Saturday; the upper rooms are available every day.  By reservation only.", "email": "lairktv@gmail.com", "name": "KTV", "opening_hours": "19:00-26:00"}}, {"type": "node", "id": 6556392908, "lat": 39.9538547, "lon": -75.157219, "tags": {"amenity": "bar", "name": "Tango"}}, {"type": "node", "id": 6558075399, "lat": 39.9493345, "lon": -75.1526809, "tags": {"amenity": "bar", "name": "Las Vegas Lounge"}}, {"type": "node", "id": 6575257174, "lat": 39.9483634, "lon": -75.2173008, "tags": {"amenity": "bar", "name": "Dahlak"}}, {"type": "node", "id": 6597387162, "lat": 39.9476975, "lon": -75.1665331, "tags": {"addr:city": "Philadelphia", "addr:housenumber": "258", "addr:postcode": "19102", "addr:state": "PA", "addr:street": "South 15th Street", "amenity": "bar", "check_date": "2023-04-11", "contact:phone": "+1 267-519-2189", "contact:website": "https://www.howlatthemoon.com/philadelphia", "description": "The Philadelphia branch of the Howl at the Moon franchise.", "name": "Howl at the Moon", "opening_hours": "Mo-We,Su \"open for events\"; Th 19:00-26:00; Fr-Sa 18:00-26:00", "toilets:wheelchair": "yes", "wheelchair": "yes"}}, {"type": "node", "id": 6625360703, "lat": 39.9468964, "lon": -75.1441362, "tags": {"addr:housenumber": "126", "addr:street": "Walnut Street", "amenity": "bar", "check_date": "2023-04-12", "contact:phone": "+1 215-253-3777", "contact:website": "https://www.theoldebar.com", "name": "The Olde Bar", "opening_hours": "Mo-Fr 16:00-22:00; Sa-Su 12:00-15:00,16:00-22:00"}}, {"type": "node", "id": 6634093937, "lat": 39.962125, "lon": -75.1534533, "tags": {"amenity": "bar", "craft": "brewery", "name": "Triple Bottom Brewing"}}, {"type": "node", "id": 6669293565, "lat": 39.9383368, "lon": -75.1900707, "tags": {"amenity": "bar", "craft": "brewery", "name": "Point Breeze Brewing"}}, {"type": "node", "id": 6876115463, "lat": 39.9129958, "lon": -75.243858, "tags": {"amenity": "bar", "name": "Rose's Tavern"}}, {"type": "node", "id": 6876115464, "lat": 39.9110312, "lon": -75.2432988, "tags": {"addr:housenumber": "7417", "addr:street": "Buist Avenue", "amenity": "bar", "name": "Shotz Bar & Grill", "outdoor_seating": "no"}}, {"type": "node", "id": 6884017091, "lat": 39.913576, "lon": -75.2361898, "tags": {"addr:city": "Philadelphia", "addr:housenumber": "7100", "addr:postcode": "19153", "addr:state": "PA", "addr:street": "Dicks Avenue", "amenity": "bar", "name": "A&K Beer Store"}}, {"type": "node", "id": 6886196285, "lat": 39.912439, "lon": -75.2428749, "tags": {"addr:city": "Philadelphia", "addr:housenumber": "2515", "addr:postcode": "19153", "addr:state": "PA", "addr:street": "Island Avenue", "amenity": "bar", "name": "Bottom's Up 215"}}, {"type": "node", "id": 6886277927, "lat": 39.9159416, "lon": -75.2389868, "tags": {"addr:city": "Philadelphia", "addr:housenumber": "7100", "addr:postcode": "19153", "addr:state": "PA", "addr:street": "Elmwood Avenue", "amenity": "bar", "name": "Golden Kingdom II"}}, {"type": "node", "id": 6887218406, "lat": 39.9243932, "lon": -75.2385365, "tags": {"amenity": "bar", "name": "The Hut"}}, {"type": "node", "id": 6887221220, "lat": 39.9268372, "lon": -75.2355851, "tags": {"amenity": "bar", "name": "Ford's Sports Bar"}}, {"type": "node", "id": 6887400138, "lat": 39.9243723, "lon": -75.2331053, "tags": {"amenity": "bar", "name": "Lucky Beer Deli"}}, {"type": "node", "id": 6887496461, "lat": 39.9279196, "lon": -75.2307342, "tags": {"amenity": "bar", "name": "Lounge 62"}}, {"type": "node", "id": 6897200045, "lat": 39.9318539, "lon": -75.2295993, "tags": {"amenity": "bar", "name": "Upland Beer & Deli"}}, {"type": "node", "id": 6897200051, "lat": 39.9336149, "lon": -75.2312898, "tags": {"amenity": "bar", "name": "60th St Pizza & Beer"}}, {"type": "node", "id": 7098149781, "lat": 39.9695665, "lon": -75.1317724}, {"type": "node", "id": 7098149782, "lat": 39.9694354, "lon": -75.1316984}, {"type": "node", "id": 7098149783, "lat": 39.9693996, "lon": -75.1318064}, {"type": "node", "id": 7098149784, "lat": 39.9695307, "lon": -75.1318804}, {"type": "node", "id": 7131484401, "lat": 40.0692663, "lon": -75.2402496, "tags": {"addr:city": "Philadelphia", "addr:housenumber": "8919", "addr:postcode": "19128", "addr:state": "PA", "addr:street": "Ridge Ave", "addr:unit": "1", "amenity": "bar", "brewery": "yes", "min_age": "21", "name": "Graham's Pub"}}, {"type": "node", "id": 7307810558, "lat": 40.0422868, "lon": -75.2263016}, {"type": "node", "id": 7307810559, "lat": 40.0422453, "lon": -75.2262436}, {"type": "node", "id": 7307810560, "lat": 40.0421841, "lon": -75.2263185}, {"type": "node", "id": 7307810561, "lat": 40.0421517, "lon": -75.2264669}, {"type": "node", "id": 7383406631, "lat": 39.9824766, "lon": -75.1271385}, {"type": "node", "id": 7383406636, "lat": 39.9823429, "lon": -75.1269397}, {"type": "node", "id": 7383406638, "lat": 39.9823703, "lon": -75.1269083}, {"type": "node", "id": 7383406643, "lat": 39.9825964, "lon": -75.1270872}, {"type": "node", "id": 7383406647, "lat": 39.9825485, "lon": -75.1271832}, {"type": "node", "id": 7383406648, "lat": 39.9825123, "lon": -75.1267736, "tags": {"amenity": "bar", "name": "The Lost Bar"}}, {"type": "node", "id": 7383480662, "lat": 39.9762831, "lon": -75.1371413, "tags": {"amenity": "bar", "name": "Stateside Urbancraft Vodka Tasting Room", "operator": "Federal Distilling Room"}}, {"type": "node", "id": 7383491138, "lat": 39.9757647, "lon": -75.1340044, "tags": {"amenity": "bar", "craft": "brewery", "name": "Evil Genius Beer Company"}}, {"type": "node", "id": 7383526243, "lat": 39.9745786, "lon": -75.1400343, "tags": {"alt_name": "Original 13 Ciderworks", "amenity": "bar", "craft": "brewery", "name": "Original XIII Ciderworks"}}, {"type": "node", "id": 7383526245, "lat": 39.9736549, "lon": -75.1397393, "tags": {"amenity": "bar", "craft": "brewery", "name": "Punch Buggy Brewing Company"}}, {"type": "node", "id": 7383531794, "lat": 39.9624458, "lon": -75.1357955, "tags": {"amenity": "bar", "craft": "brewery", "name": "Mainstay Independent Brewing Company"}}, {"type": "node", "id": 7383548287, "lat": 39.9656362, "lon": -75.1353856, "tags": {"amenity": "bar", "craft": "distillery", "name": "Philadelphia Distilling"}}, {"type": "node", "id": 7383548302, "lat": 39.9655211, "lon": -75.1349698, "tags": {"amenity": "bar", "name": "Ajax Hall"}}, {"type": "node", "id": 7383548306, "lat": 39.9649456, "lon": -75.1356963, "tags": {"amenity": "bar", "name": "Goose Island Brewhouse"}}, {"type": "node", "id": 7402711440, "lat": 39.9602964, "lon": -75.1555496, "tags": {"amenity": "bar", "craft": "brewery", "name": "Love City Brewing"}}, {"type": "node", "id": 7433918009, "lat": 39.9411822, "lon": -75.1522466}, {"type": "node", "id": 7433918010, "lat": 39.9412697, "lon": -75.1522281}, {"type": "node", "id": 7515828914, "lat": 40.0230366, "lon": -75.1617102, "tags": {"amenity": "bar", "craft": "brewery", "name": "Attic Brewing Company"}}, {"type": "node", "id": 7515874059, "lat": 39.9928387, "lon": -75.1085964, "tags": {"amenity": "bar", "craft": "brewery", "name": "Sacred Vice Brewing Company"}}, {"type": "node", "id": 7519175761, "lat": 39.9239355, "lon": -75.1788394, "tags": {"amenity": "bar", "craft": "brewery", "name": "Brewery ARS"}}, {"type": "node", "id": 7519193125, "lat": 39.9513901, "lon": -75.1796251, "tags": {"amenity": "bar", "name": "Workhorse Brewing: Center City Taproom"}}, {"type": "node", "id": 7519200864, "lat": 40.0252438, "lon": -75.222801, "tags": {"amenity": "bar", "check_date": "2023-07-28", "check_date:opening_hours": "2023-09-26", "name": "Fat Lady Brewing", "opening_hours:signed": "no"}}, {"type": "node", "id": 7519214205, "lat": 40.0741594, "lon": -75.2026934, "tags": {"amenity": "bar", "craft": "brewery", "name": "Chestnut Hill Brewing Company"}}, {"type": "node", "id": 7524084336, "lat": 40.0136822, "lon": -75.2008481, "tags": {"amenity": "bar", "craft": "brewery", "name": "Wissahickon Brewing Company"}}, {"type": "node", "id": 7613664316, "lat": 39.915237, "lon": -75.1757793, "tags": {"addr:city": "Philadephia", "addr:housenumber": "2831", "addr:postcode": "19145", "addr:state": "PA", "addr:street": "South 17th Street", "amenity": "bar", "name": "Bender City"}}, {"type": "node", "id": 8116472552, "lat": 39.9784621, "lon": -75.1304159, "tags": {"amenity": "bar", "name": "Nut Hut Saloon", "website": "https://www.facebook.com/thenuthutsaloon/"}}, {"type": "node", "id": 8410340130, "lat": 39.9500338, "lon": -75.1732073, "tags": {"amenity": "bar", "name": "Bar210"}}, {"type": "node", "id": 8410340131, "lat": 39.9499956, "lon": -75.1730503, "tags": {"addr:housenumber": "210", "addr:street": "West Rittenhouse Square", "amenity": "bar", "check_date": "2023-04-11", "contact:website": "https://www.rittenhousehotel.com/dining/librarybar", "name": "The Library Bar", "opening_hours": "Mo-Th,Su 17:00-23:00; Fr-Sa 17:00-24:30"}}, {"type": "node", "id": 8439601858, "lat": 39.9691718, "lon": -75.1343301}, {"type": "node", "id": 8439601859, "lat": 39.9690357, "lon": -75.1343301}, {"type": "node", "id": 8439601860, "lat": 39.9691109, "lon": -75.1341086}, {"type": "node", "id": 8439601861, "lat": 39.969225, "lon": -75.1341679}, {"type": "node", "id": 8439601863, "lat": 39.9692397, "lon": -75.1345606, "tags": {"addr:city": "Philadelphia", "addr:housenumber": "1206", "addr:postcode": "19125", "addr:state": "PA", "addr:street": "Frankford Avenue", "amenity": "bar", "min_age": "21", "name": "R&D Cocktail Bar"}}, {"type": "node", "id": 8441665847, "lat": 39.968668, "lon": -75.1343248}, {"type": "node", "id": 8441665848, "lat": 39.9685323, "lon": -75.1343254}, {"type": "node", "id": 8441665849, "lat": 39.9685319, "lon": -75.1341536}, {"type": "node", "id": 8441665850, "lat": 39.9685865, "lon": -75.1341533}, {"type": "node", "id": 8441665851, "lat": 39.9686241, "lon": -75.1340412}, {"type": "node", "id": 8441665852, "lat": 39.9687423, "lon": -75.1341094}, {"type": "node", "id": 8441665892, "lat": 39.968979, "lon": -75.1334608}, {"type": "node", "id": 8441665893, "lat": 39.9688157, "lon": -75.1333671}, {"type": "node", "id": 8441665895, "lat": 39.968998, "lon": -75.1334043}, {"type": "node", "id": 8441665896, "lat": 39.9688353, "lon": -75.1333101}, {"type": "node", "id": 8441665897, "lat": 39.9689943, "lon": -75.1334021}, {"type": "node", "id": 8591425502, "lat": 39.9522461, "lon": -75.1682872, "tags": {"amenity": "bar", "name": "Blue Bird Distilling - Center City Tasting Room", "website": "https://bluebirddistilling.com/center-city/"}}, {"type": "node", "id": 9247339141, "lat": 39.9254197, "lon": -75.159874, "tags": {"addr:housenumber": "800", "addr:street": "Mifflin Street", "amenity": "bar", "name": "Bok Bar"}}, {"type": "node", "id": 9423180750, "lat": 39.966001, "lon": -75.1381233, "tags": {"amenity": "bar", "name": "The Garden at Monarch"}}, {"type": "node", "id": 9461228249, "lat": 39.9444608, "lon": -75.1411184}, {"type": "node", "id": 9461228250, "lat": 39.9444401, "lon": -75.1411221}, {"type": "node", "id": 9461228251, "lat": 39.9444316, "lon": -75.1410571}, {"type": "node", "id": 9461228252, "lat": 39.9444515, "lon": -75.1410515}, {"type": "node", "id": 9718956004, "lat": 40.052696, "lon": -75.0649777, "tags": {"amenity": "bar", "name": "Dimension Sports Bar"}}, {"type": "node", "id": 10132124523, "lat": 39.9687487, "lon": -75.136175}, {"type": "node", "id": 10132124524, "lat": 39.9687231, "lon": -75.13603}, {"type": "node", "id": 10132124525, "lat": 39.968624, "lon": -75.1360636}, {"type": "node", "id": 10132124526, "lat": 39.9686491, "lon": -75.1362056}, {"type": "node", "id": 10132124527, "lat": 39.9686758, "lon": -75.1360439}, {"type": "node", "id": 10132124534, "lat": 39.9687455, "lon": -75.1361569, "tags": {"entrance": "main"}}, {"type": "node", "id": 10300980672, "lat": 39.9520112, "lon": -75.178497}, {"type": "node", "id": 10542176918, "lat": 39.9563015, "lon": -75.1944241, "tags": {"addr:city": "Philadelphia", "addr:housenumber": "3601", "addr:postcode": "19104", "addr:state": "PA", "addr:street": "Market Street", "amenity": "bar", "name": "Pace & Blossom"}}, {"type": "node", "id": 10573876853, "lat": 39.9824565, "lon": -75.1283747, "tags": {"addr:city": "Philadelphia", "addr:housenumber": "2101", "addr:postcode": "19125", "addr:state": "PA", "addr:street": "East York Street", "amenity": "bar", "level": "0,1", "min_age": "21", "name": "Monkey Club", "opening_hours": "Mo-Fr 16:00-02:00, Sa-Su 14:00-02:00", "sport": "table_soccer;billiards;table_hockey", "website": "https://monkeyclubphilly.wordpress.com/"}}, {"type": "node", "id": 10682204580, "lat": 39.9537491, "lon": -75.1957911, "tags": {"addr:city": "Philadelphia", "addr:housenumber": "3600", "addr:postcode": "19104", "addr:state": "PA", "addr:street": "Sansom Street", "amenity": "bar", "name": "The Living Room Lounge"}}, {"type": "node", "id": 10692148334, "lat": 39.9507795, "lon": -75.1688676, "tags": {"addr:city": "Philadelphia", "addr:housenumber": "111", "addr:postcode": "19103", "addr:state": "PA", "addr:street": "South 17th Street", "amenity": "bar", "name": "Rec & Royal"}}, {"type": "node", "id": 10728686424, "lat": 40.001164, "lon": -75.2150133, "tags": {"amenity": "bar", "fixme": "Is the name \"Cocktails\" or just \"Cocktail\"?", "name": "Five Points Cocktails"}}, {"type": "node", "id": 10916408098, "lat": 40.0292953, "lon": -75.2067285, "tags": {"amenity": "bar", "check_date": "2023-09-05", "height": "11.27", "name": "Henry James Saloon", "opening_hours": "11:00-23:00", "outdoor_seating": "no", "smoking": "outside", "source": "esri/Philadelphia_PA_Buildings_OSM"}}, {"type": "node", "id": 10951764737, "lat": 40.0421188, "lon": -75.226421}, {"type": "node", "id": 10951764738, "lat": 40.0421647, "lon": -75.2263648}, {"type": "node", "id": 10951764739, "lat": 40.042161, "lon": -75.2263595}, {"type": "node", "id": 10951764740, "lat": 40.042189, "lon": -75.2263253}, {"type": "node", "id": 11018275014, "lat": 39.9521242, "lon": -75.174893, "tags": {"amenity": "bar", "name": "Butcher Bar"}}, {"type": "node", "id": 11020598865, "lat": 39.9481263, "lon": -75.1432848, "tags": {"amenity": "bar", "name": "Buffalo Billard"}}, {"type": "node", "id": 11055837200, "lat": 40.0341133, "lon": -75.2157644, "tags": {"amenity": "bar", "check_date": "2023-07-19", "check_date:opening_hours": "2023-07-26", "name": "Peck Miller's Bar", "opening_hours:signed": "no"}}, {"type": "node", "id": 11073875052, "lat": 40.0237853, "lon": -75.2201655, "tags": {"amenity": "bar", "check_date": "2023-07-28", "name": "The Goat's Beard"}}, {"type": "node", "id": 11073875065, "lat": 40.0241077, "lon": -75.2205884, "tags": {"amenity": "bar", "check_date": "2023-07-28", "name": "Vira Vookah Lounge"}}, {"type": "node", "id": 11073875079, "lat": 40.0250093, "lon": -75.2222149, "tags": {"amenity": "bar", "check_date": "2023-07-28", "check_date:opening_hours": "2023-09-26", "name": "Somo Lounge", "opening_hours:signed": "no"}}, {"type": "node", "id": 11077723031, "lat": 40.0352349, "lon": -75.2178182, "tags": {"amenity": "bar", "check_date": "2023-07-30", "name": "J D McGillicuddy's"}}, {"type": "node", "id": 11087738720, "lat": 39.9953286, "lon": -75.129685}, {"type": "node", "id": 11087738751, "lat": 39.9953893, "lon": -75.1297832}, {"type": "node", "id": 11087738760, "lat": 39.9953814, "lon": -75.1297848}, {"type": "node", "id": 11087738884, "lat": 39.9953306, "lon": -75.1297011}, {"type": "node", "id": 11087738916, "lat": 39.995384, "lon": -75.1297398}, {"type": "node", "id": 11087738925, "lat": 39.9953272, "lon": -75.1297018}, {"type": "node", "id": 11087738952, "lat": 39.9953752, "lon": -75.1297416}, {"type": "node", "id": 11087739082, "lat": 39.9953459, "lon": -75.1298538}, {"type": "node", "id": 11087739111, "lat": 39.9953673, "lon": -75.1296769}, {"type": "node", "id": 11099160817, "lat": 39.9944656, "lon": -75.1212595}, {"type": "node", "id": 11099160921, "lat": 39.9944634, "lon": -75.1212362}, {"type": "node", "id": 11099161052, "lat": 39.9944648, "lon": -75.1212538}, {"type": "node", "id": 11099161159, "lat": 39.9944354, "lon": -75.1210219}, {"type": "node", "id": 11099161190, "lat": 39.9945122, "lon": -75.1212425}, {"type": "node", "id": 11099161533, "lat": 39.9944203, "lon": -75.1212694}, {"type": "node", "id": 11099161637, "lat": 39.9945098, "lon": -75.1212233}, {"type": "node", "id": 11171814638, "lat": 40.0313905, "lon": -75.207866, "tags": {"amenity": "bar", "check_date": "2023-09-05", "name": "Murphy's Tavern"}}, {"type": "node", "id": 11220871802, "lat": 40.0256789, "lon": -75.2231465, "tags": {"amenity": "bar", "check_date": "2023-09-26", "name": "The Grape"}}, {"type": "way", "id": 269853604, "nodes": [2749790457, 2749790461, 2749790464, 2749790466, 4366251787, 4366251786, 2749790457], "tags": {"addr:city": "Philadelphia", "addr:housenumber": "1509", "addr:postcode": "19145", "addr:street": "Mifflin Street", "amenity": "bar", "atm": "yes", "building": "yes", "building:levels": "2", "cuisine": "gastropub", "food": "yes", "name": "South Philadelphia Tap Room", "opening_hours": "11:00-02:00", "outdoor_seating": "yes", "phone": "+1 215 271 7787", "website": "http://www.southphiladelphiataproom.com/index2.html"}}, {"type": "way", "id": 270896130, "nodes": [2758582547, 2758582549, 2758582551, 2758582553, 4545484121, 2758582547], "tags": {"addr:city": "Philadelphia", "addr:housenumber": "2400", "addr:postcode": "19145", "addr:street": "South 19th Street", "amenity": "bar", "building": "yes", "name": "Tap Room on 19th", "opening_hours": "11:00-02:00", "phone": "+1 267 687 7817"}}, {"type": "way", "id": 334264446, "nodes": [3413742082, 3413742083, 3413742084, 3413742085, 3413742082], "tags": {"addr:city": "Philadelphia", "addr:housenumber": "1100", "addr:postcode": "19147", "addr:state": "PA", "addr:street": "Washington Avenue", "amenity": "bar", "building": "yes", "name": "Red Lounge", "opening_hours": "Mo 18:00-02:00; Tu closed; We-Su 18:00-02:00", "phone": "+1 267 273 1237"}}, {"type": "way", "id": 334658102, "nodes": [3417195707, 3417195708, 3531082351, 3531082350, 3413417149, 3417195707], "tags": {"addr:city": "Philadelphia", "addr:housenumber": "1511", "addr:postcode": "19102", "addr:street": "Locust Street", "amenity": "bar", "building": "yes", "building:levels": "1", "check_date": "2023-04-11", "contact:facebook": "https://www.facebook.com/misconductphl", "contact:phone": "+1 215-732-5797", "contact:website": "https://misconducttavern.com/rittenhouse/", "name": "Misconduct Tavern"}}, {"type": "way", "id": 334890738, "nodes": [3420122220, 4806012531, 3420122221, 3420122222, 3420122223, 3420122220], "tags": {"amenity": "bar", "building": "yes", "name": "South Philly Bar and Grill"}}, {"type": "way", "id": 334890739, "nodes": [3420122222, 3420122224, 3420122225, 4806012532, 4806012533, 3420122223, 3420122222], "tags": {"amenity": "bar", "building": "yes", "name": "The Garage", "opening_hours": "Mo-Fr 17:00-02:00"}}, {"type": "way", "id": 345044249, "nodes": [3517411364, 3517411365, 3517411366, 3517411367, 3517411368, 3517411369, 3517411370, 3517411364], "tags": {"amenity": "bar", "building": "yes"}}, {"type": "way", "id": 350991334, "nodes": [3567104221, 3567104222, 3567104223, 3567104224, 10300980672, 3567104221], "tags": {"amenity": "bar", "building": "yes", "name": "Bonner's Irish Pub"}}, {"type": "way", "id": 373914374, "nodes": [3773468429, 3773468430, 3773468431, 3773468432, 3773468429], "tags": {"amenity": "bar", "building": "yes", "nonsquare": "yes"}}, {"type": "way", "id": 401910417, "nodes": [4043212394, 4043212395, 4043212396, 4043212397, 4043212398, 4043212399, 4043212394], "tags": {"addr:city": "Philadelphia", "addr:housenumber": "1356", "addr:street": "North Front Street", "amenity": "bar", "building": "yes", "name": "The El Bar", "opening_hours": "Mo-Su 00:00-02:00,11:00-24:00", "outdoor_seating": "yes", "smoking": "outside"}}, {"type": "way", "id": 428817661, "nodes": [4279223855, 4279223856, 4803936642, 4803936643, 4279223857, 4279223858, 4279223855], "tags": {"amenity": "bar", "building": "yes", "name": "Grumpy's Tavern"}}, {"type": "way", "id": 439006951, "nodes": [4366346429, 4366346430, 4366346431, 4366346432, 4366346433, 4366346434, 4366346435, 4366346429], "tags": {"addr:city": "Philadelphia", "addr:housenumber": "1338", "addr:postcode": "19147", "addr:state": "PA", "addr:street": "South 10th Street", "amenity": "bar", "building": "yes", "name": "Triangle Tavern", "smoking": "outside"}}, {"type": "way", "id": 439036334, "nodes": [4366622414, 4366622415, 4366622416, 4533973396, 4366622417, 4366622414], "tags": {"addr:city": "Philadelphia", "addr:housenumber": "1503", "addr:postcode": "19147", "addr:state": "PA", "addr:street": "South 13th Street", "amenity": "bar", "building": "yes", "name": "Bonnie's Capistrano Bar", "opening_hours": "Mo-Th 07:00-00:00, Fr 07:00-02:00, Sa 09:00-02:00, Su closed", "smoking": "yes"}}, {"type": "way", "id": 439036335, "nodes": [4366622418, 4366622419, 4366622420, 4366622421, 4366622422, 4366622423, 4366622424, 4366622442, 4366622425, 4366622418], "tags": {"addr:city": "Philadelphia", "addr:housenumber": "1501", "addr:postcode": "19147", "addr:state": "PA", "addr:street": "East Passyunk Avenue", "amenity": "bar", "building": "yes", "name": "Pub On Passyunk East"}}, {"type": "way", "id": 547167625, "nodes": [5286851196, 5286851197, 5286851199, 5286851200, 5286851198, 5286851195, 5286851196], "tags": {"amenity": "bar", "building": "yes", "name": "The Union Tap"}}, {"type": "way", "id": 568603549, "nodes": [5470214362, 5470214363, 5470214364, 5470214365, 5470214366, 5470214367, 5470214368, 5470214362], "tags": {"amenity": "bar", "building": "yes", "name": "McNally's"}}, {"type": "way", "id": 584780039, "nodes": [5589337625, 5589337626, 5589337627, 5589337628, 5589337629, 5589337630, 5589337625], "tags": {"amenity": "bar", "brewery": "yes", "building": "yes", "name": "Kraftwork", "outdoor_seating": "yes"}}, {"type": "way", "id": 628136773, "nodes": [5930024329, 5930024330, 5930024331, 5930024328, 5930024329], "tags": {"amenity": "bar", "building": "yes", "name": "Sweeney's Veree Tavern"}}, {"type": "way", "id": 759837326, "nodes": [7098149784, 7098149783, 7098149782, 7098149781, 7098149784], "tags": {"amenity": "bar", "building": "yes", "heritage": "yes", "name": "Green Tree Tavern", "wikidata": "Q5603342", "wikipedia": "en:Green Tree Tavern"}}, {"type": "way", "id": 782572287, "nodes": [7307810558, 7307810559, 7307810560, 10951764740, 10951764739, 10951764738, 10951764737, 7307810561, 7307810558], "tags": {"amenity": "bar", "building": "yes", "name": "Pop Pops 2"}}, {"type": "way", "id": 789715192, "nodes": [7383406647, 7383406643, 7383406638, 7383406636, 7383406631, 7383406647], "tags": {"amenity": "bar", "name": "Philadelphia Brewing Company Peacock Room Bar & Garden"}}, {"type": "way", "id": 794794361, "nodes": [5413260221, 7433918009, 7433918010, 3460931547, 5413260221], "tags": {"amenity": "bar", "building": "yes", "name": "Bainbridge Street Barrel House"}}, {"type": "way", "id": 908941276, "nodes": [8439601858, 8439601859, 8439601860, 8439601861, 8439601858], "tags": {"addr:city": "Philadelphia", "addr:housenumber": "1201", "addr:postcode": "19125", "addr:state": "PA", "addr:street": "Frankford Avenue", "amenity": "bar", "building": "yes", "min_age": "21", "name": "Johnny Brenda's Tavern"}}, {"type": "way", "id": 909177961, "nodes": [8441665847, 8441665848, 8441665849, 8441665850, 8441665851, 8441665852, 8441665847], "tags": {"addr:city": "Philadelphia", "addr:housenumber": "100", "addr:postcode": "19125", "addr:state": "PA", "addr:street": "East Girard Avenue", "amenity": "bar", "building": "yes", "min_age": "21", "name": "Garage Fishtown"}}, {"type": "way", "id": 909177967, "nodes": [8441665892, 8441665895, 8441665897, 8441665896, 8441665893, 8441665892], "tags": {"addr:city": "Philadelphia", "addr:housenumber": "202", "addr:postcode": "19125", "addr:state": "PA", "addr:street": "East Girard Avenue", "amenity": "bar", "building": "yes", "min_age": "21", "name": "Murph's Bar"}}, {"type": "way", "id": 1026177161, "nodes": [9461228249, 9461228250, 9461228251, 9461228252, 9461228249], "tags": {"amenity": "bar", "building": "yes"}}, {"type": "way", "id": 1107321334, "nodes": [10132124523, 10132124534, 10132124524, 10132124527, 10132124525, 10132124526, 10132124523], "tags": {"amenity": "bar", "building": "yes", "name": "JJ Mallons"}}, {"type": "way", "id": 1194592773, "nodes": [11087738720, 11087738884, 11087738925, 11087739082, 5718820401, 11087738760, 11087738751, 11087738916, 11087738952, 11087739111, 11087738720], "tags": {"addr:city": "Philadelphia", "addr:housenumber": "2959", "addr:postcode": "19133", "addr:state": "PA", "addr:street": "North Front Street", "addr:unit": "61", "amenity": "bar", "building": "yes", "height": "8.53", "name": "L&G Cold Beer", "source": "City of Philadelphia"}}, {"type": "way", "id": 1196030450, "nodes": [11099161637, 11099160921, 11099161159, 5721511130, 11099161533, 11099160817, 11099161052, 11099161190, 11099161637], "tags": {"addr:city": "Philadelphia", "addr:housenumber": "3000", "addr:postcode": "19134", "addr:state": "PA", "addr:street": "Rorer Street", "amenity": "bar", "building": "yes", "height": "10.6", "name": "El Paso Fino", "source": "City of Philadelphia"}}]}